Postcode,Area,City,StreetNumber,StreetName,FullAddress
486,Abbey Caves,Winton,8,Branston Street,"8 Tesla Place, Totara Vale, Auckland"
491,Abbotsford,Fairlie,7B,Riverhead Lane,"7B Tupaea Place, Ngaruawahia"
492,Acacia Bay,Oamaru,178,James Laurie Street,"178 Breezes Road, Aranui, Christchurch"
494,Addington,Taupo,Jul 34,Mahuta Road,"7/34 Uxbridge Road, Mellons Bay, Auckland"
496,Ahuriri,Auckland,11,Ostrich Road,"11 The Octagon, Dunedin Central, Dunedin"
505,Akina,Dunedin,89,Medway Street,"89 Warden Street, Richmond, Christchurch"
510,Albany,Rotorua,14,Milton Street,"14 Matuhi Street, Tirohanga, Lower Hutt"
520,Albany Heights,Lower Hutt,57,Portadown Avenue,"57 Little John Drive, Bellevue, Tauranga"
530,Albert Town,Auckland,147,Palm Beach Boulevard,"147 Dixon Street, Te Aro, Wellington"
540,Alfriston,Otaki,4,Heriot Row,"4 Newall Avenue, Bryndwr, Christchurch"
541,Algies Bay,Christchurch,48,England Street,"48 Bob Charles Drive, Golflands, Auckland"
542,Alicetown,Waipukurau,6901B,Hartley Street,"6901B State Highway 1, Kaitaia"
543,Allenton,Christchurch,1228,Old Te Atatu Road,"1228 Panikau Road, Waimata"
545,Andersons Bay,Kaitaia,22,Claudelands Road,"22 Opahi Bay Road, Mahurangi West"
547,Annesbrook,Christchurch,19,Wallace Street,"19 Allen Street, Methven"
549,Aotea,Nelson,66,Awhenga Place,"66 Gilletta Road, Mount Roskill, Auckland"
550,Appleby,Morrinsville,25,Goldfinch Street,"25 Fitzherbert Avenue, West Harbour, Auckland"
571,Aramoho,Auckland,3E/9,Cowley Place,"3E/9 Bute Road, Browns Bay, Auckland"
573,Aranui,Tauranga,67,Rawhiti Avenue,"67 Grand Vue Road, Kawaha Point, Rotorua"
582,Arapuni,Auckland,116,Dalmeny Street,"116 Bedford Street, Saint Clair, Dunedin"
583,Arkles Bay,Feilding,Apr 49,Owens Terrace,"4/49 Kingsway Avenue, Sandringham, Auckland"
587,Army Bay,Rotorua,87,Albionvale Road,"87 Cannon Hill Crescent, Mount Pleasant, Christchurch"
588,Aro Valley,Taupo,34,Peat Street,"34 Kaka Road, Taihape"
589,Ascot,Whangarei,6/460,Glendevere Terrace,"6/460 Remuera Road, Remuera, Auckland"
591,Ascot Park,Christchurch,49,Rifle Range Road,"49 Lyndhurst Street, Westport"
592,Atawhai,Wellington,71,Weraroa Road,"71 Kirton Road, Manunui, Taumarunui"
593,Auckland Airport,Whanganui,22B,Hutt Road,"22B Lanark Street, Mosgiel"
594,Auckland Central,Palmerston North,22,Meon Street,"22 Loop Road, Waihemo"
600,Avalon,Whangarei,Mar 14,Nottingham Road,"3/14 Wolsley Avenue, Milford, Auckland"
602,Avenal,Lower Hutt,112,Upper Manaia Road,"112 Govan Drive, Te Anau"
604,Avenues,Whanganui,119,South Road,"119 Aorangi Road, Bryndwr, Christchurch"
610,Avondale,Upper Hutt,12,Michael Street,"12 Holland Street, Wainuiomata, Lower Hutt"
612,Avonhead,Christchurch,74,Centennial Avenue,"74 Sparks Road, Hoon Hay, Christchurch"
614,Avonside,Takanini,47,Puhinui Road,"47 Rhodes Street, Waimate"
618,Awapuni,Wellington,58,Greenhill Road,"58 Kairakau Road, Elsthorpe"
620,Awatoto,Lower Hutt,142B,Poporangi Road,"142B Bishop Street, St Albans, Christchurch"
622,Bader,Auckland,60,Carson Street,"60 Oceanview Road, Mount Maunganui"
624,Balaclava,Whangaparaoa,10,Hinaki Street,"10 Lakeridge Close, Northcross, Auckland"
626,Bastia Hill,Auckland,605,Valley Road,"605 Francis Hicks Place, Raureka, Hastings"
627,Bay View,Lower Hutt,32,Tarras-Cromwell Road,"32 Bryant Street, Takaro, Palmerston North"
629,Bayswater,Greymouth,15,Jade Crescent,"15 Dublin Street, Whanganui"
630,Bayview,Lower Hutt,1,Fowlds Avenue,"1 Earlham Street, Brooklands, Christchurch"
632,Beach Haven,Lower Hutt,89,Lewis Street,"89 One Tree Point Road, One Tree Point, Whangarei"
640,Beachlands,Mount Maunganui,22,Broadway,"22 Hoylake Place, Wattle Downs, Auckland"
641,Beachville,Blenheim,19,Kaka Crescent,"19 Plunket Street, Raetihi"
642,Beckenham,Whanganui,404A,Eglinton Avenue,"404A Gascoigne Street, Raureka, Hastings"
643,Beerescourt,Warkworth,26,Moorhouse Avenue,"26 Country Club Terrace, Northwood, Christchurch"
644,Belfast,Paraparaumu,60,Ruthven Road,"60 Rimu Street, Heidelberg, Invercargill"
645,Bell Block,Levin,60,Cloten Road,"60 Bridge Street, Rongotai, Wellington"
650,Belleknowes,Christchurch,30,Tyne Street,"30 Holdaway Avenue, Northcote, Auckland"
651,Belmont,Porirua,139,Ahuriri Street,"139 Fitzherbert Street, Featherston"
652,Berhampore,Paraparaumu,34,Mulford Street,"34 Buxton Street, Point Chevalier, Auckland"
653,Bexley,Whangaparaoa,2,Waimea Terrace,"2 Foster Place, Rangiora"
654,Birchville,Cambridge,25,Awamoa Road,"25 Cobden Road, Bluff Hill, Napier"
655,Birkdale,Dunedin,1,Jervois Road,"1 Mainstreet Place, Te Rapa, Hamilton"
656,Birkenhead,Kaiapoi,7,Laings Road,"7 Kaumatua Place, Te Atatu Peninsula, Auckland"
657,Bishopdale,Hamilton,24A,Randwick Place,"24A Bills Way, Wanaka"
660,Blagdon,Christchurch,1,Dalgliesh Avenue,"1 Anzac Street, Gisborne"
661,Blaketown,Whanganui,24,Barclay Street,"24 Tinaku Road, Flat Bush, Auckland"
662,Blockhouse Bay,Auckland,2,Puhipuhi Road,"2 Ihaka Street, Hokowhitu, Palmerston North"
663,Bluff Hill,Waipawa,205/11,Ardilea Avenue,"205/11 Vinegar Lane, Grey Lynn, Auckland"
740,Botany Downs,Te Awamutu,100,Avon Road,"100 Broomfields Road, Whitford"
741,Bottle Lake,Tauranga,14,Mangawhero Terrace,"14 Broad Street, Southbridge"
742,Boulcott,Auckland,35,Mountain Road,"35 Kauri Drive, Takanini"
743,Bradford,Marton,140,Manukau Road,"140 Rahui Road, Otaki"
744,Breaker Bay,Dunedin,17,Glen Ida Way,"17 Clarks Beach Road, Clarks Beach"
745,Bridge Hill,Auckland,103,Mission Street,"103 Featherston Street, Wellington Central, Wellington"
746,Brighton,Napier,1250B,Huia Crescent,"1250B Fairdown Road, Waimangaroa"
747,Britannia Heights,Auckland,45A,Jolson Road,"45A Ganges Road, Khandallah, Wellington"
748,Broad Bay,Napier,35,Wilde Avenue,"35 Heron Avenue East, Matua, Tauranga"
749,Broadmeadows,Waipukurau,11,Silverton Avenue,"11 Lancaster Street, Waltham, Christchurch"
750,Brockville,Tokoroa,1/467,District Road,"1/467 Great South Road, Papatoetoe, Auckland"
751,Bromley,Upper Hutt,35,Boston Avenue,"35 Auckland Street, Picton"
752,Brooklands,Auckland,4,Leighton Street,"4 Nile Road, Milford, Auckland"
753,Brooklyn,Christchurch,45A,King Street,"45A College Road, Saint Johns, Auckland"
754,Broomfield,Wellington,12,Line Road,"12 Mulu Place, Fairview Heights, Auckland"
755,Brown Owl,Auckland,33,Mauritius Key,"33 Puketai Street, Andersons Bay, Dunedin"
756,Browns Bay,Auckland,Mar 33,Marua Road,"3/33 Pukeora Avenue, Remuera, Auckland"
757,Bryndwr,Palmerston North,1,Nixon Street,"1 Ring Terrace, Saint Marys Bay, Auckland"
758,Bucklands Beach,Marton,34B,Travis Country Drive,"34B Porters Access Road, Kaeo"
772,Burleigh,Auckland,14,Trilids Lane,"14 Naver Place, Papakowhai, Porirua"
781,Burnham Camp,Havelock North,6,Kanpur Road,"6 Rauhuia Crescent, Parau, Auckland"
782,Burnside,Wellington,3,Messines Road,"3 Lister Crescent, Maraenui, Napier"
792,Burswood,Auckland,25A,Gemini Place,"25A Lorne Street, Morrinsville"
793,Burwood,Tauranga,287,Samwell Drive,"287 Centaurus Road, Hillsborough, Christchurch"
794,Calton Hill,Auckland,12,Neville Street,"12 Joy Hill Road, Romahapa"
800,Camberley,Christchurch,3/164,Wilson Crescent,"3/164 Beach Haven Road, Beach Haven, Auckland"
810,Camborne,Christchurch,7,Donovan Place,"7 Arthur Terrace, Balclutha"
812,Camerons,Wanaka,46,Roxburgh Street,"46 Ormond Street, Woodville"
814,Campbells Bay,Auckland,285,Nigel Road,"285 State Highway 12, Omapere"
820,Cannons Creek,Napier,41,Tairua Whitianga Road,"41 Bignell Street, Gonville, Whanganui"
830,Careys Bay,Whangarei,15,Ocean Beach Road,"15 Seaview Road, Remuera, Auckland"
840,Carters Beach,Raetihi,72,Range Road,"72 Bremner Avenue, Mount Roskill, Auckland"
841,Casebrook,Auckland,85,Parkinson Close,"85 Cannon Hill Crescent, Mount Pleasant, Christchurch"
842,Cashmere,Hastings,25,Hewletts Road,"25 Driftwood Place, Mangawhai Heads, Mangawhai"
843,Cass Bay,Oamaru,32,Birkenhead Avenue,"32 Palm Grove Drive, Western Heights, Hamilton"
871,Castlecliff,Christchurch,86,Wall Street,"86 Mill Road, Ohaupo"
873,Castor Bay,Temuka,3,Avon Street,"3 Front Miranda Road, Waitakaruru"
874,Caversham,Milton,7,Lucknow Road,"7 Grey Street, Palmerston North"
875,Chartwell,Christchurch,26,Glenmore Avenue,"26 Dan Tori Place, Orewa"
881,Chatswood,Waiuku,Mar 62,Raglan Street,"3/62 Compton Crescent, Taita, Lower Hutt"
882,Chedworth,Gore,112,McIntyre Road,"112 Riverbend Road, Maraenui, Napier"
883,Christchurch Airport,Auckland,31,Gray Avenue,"31 King Street, Hikurangi"
891,Christchurch Central,Gisborne,207,Old Onerahi Road,"207 Flemings Road, Seddon"
892,Churton Park,Palmerston North,92,Great South Road,"92 Bell Street, Tawa, Wellington"
900,Clareville,Auckland,49,St Martins Road,"49 Tahuna Road, Paihia"
910,Claudelands,Red Beach,90,Polygon Road,"90 Marama Avenue South, Otatara"
920,Clendon Park,Auckland,178,Orotu Drive,"178 Trig Road, Whitford"
930,Clifton,Mataura,1447,Centreway Road,"1447 Pataua North Road, Pataua North"
931,Clouston Park,Auckland,60,Dunair Drive,"60 Sussex Street, Tapanui"
932,Clover Park,Christchurch,3/160,Sutherland Road,"3/160 St Albans Street, St Albans, Christchurch"
940,Cloverlea,Whangaparaoa,486,Moana View Road,"486 Goodwin Road, Hilton"
941,Clyde Hill,Auckland,89,Elliot Road,"89 Randwick Crescent, Moera, Lower Hutt"
942,Cobden,Christchurch,249,Kapuni Street,"249 Rangiotu Road, Himatangi"
943,Cockle Bay,Waiuku,107,Kelvin Street,"107 Bordeaux Parade, Te Atatu South, Auckland"
944,College Estate,Christchurch,151,Yarmouth Road,"151 Rowley Crescent, Grovetown, Blenheim"
945,Company Bay,Hamilton,13,Kaimoana Street,"13 Avian Road, Blue Mountains"
946,Concord,Wellington,30A,Ruahine Street,"30A Stafford Street, Waitara"
947,Conifer Grove,Auckland,105,Peary Road,"105 Pembroke Street, Hamilton Lake, Hamilton"
948,Cornwallis,Ohope,9,Island View Road,"9 Wilmer Street, Christchurch Central, Christchurch"
950,Corstorphine,Renwick,98,Vernon Street,"98 Vickerman Street, Port Nelson, Nelson"
951,Cracroft,Dunedin,7,Vincent Street,"7 Dee Street, Timaru"
960,Crofton Downs,Auckland,11,Harman Street,"11 Montrose Street, Flaxmere, Hastings"
961,Dallington,Kaitaia,22,Kimshee Way,"22 College Avenue, Strowan, Christchurch"
962,Dalmore,Russell,33,Pook Road,"33 Hartley Street, Foxton Beach, Foxton"
963,Dannemora,Auckland,9425,Tawhai Street,"9425 State Highway 1, Taihape"
972,Days Bay,Auckland,19,Carbine Road,"19 Taunton Place, Rangiora"
973,Deanwell,Wellington,3,Lake Kaniere Road,"3 Corlett Road, Plimmerton, Porirua"
974,Devonport,Christchurch,2,Sunlands Drive,"2 Thames Street, Welbourn, New Plymouth"
975,Dinsdale,New Plymouth,241,Metcalfe Road,"241 Lower Ahu Ahu Road, Kaitake"
977,Dunedin Central,Auckland,114,Princes Street,"114 Stanbury Avenue, Somerfield, Christchurch"
981,Dunollie,Lower Hutt,49,Daphne Street,"49 Meadowvale Rise, Titirangi, Auckland"
982,Durie Hill,Auckland,31,Woodhouse Avenue,"31 Bevyn Street, Castor Bay, Auckland"
983,East Gore,Auckland,84,Wharf Road,"84 Hillcrest Drive, Kelvin Grove, Palmerston North"
984,East Taieri,Ashburton,5,Tiri Tiri Road,"5 Hawkins Street, Meadowbank, Auckland"
985,East Tamaki,Auckland,41,Revelation Drive,"41 Okains Bay Road, Duvauchelle"
986,East Tamaki Heights,Te Anau,34,Hill Street,"34 Newhaven Terrace, Mairangi Bay, Auckland"
991,Eastbourne,Ashburton,16,Kotuku Crescent,"16 Martin Place, Kelston, Auckland"
992,Eastern Beach,Wellington,116,Boundary Road,"116 Cordelia Street, Stratford"
993,Ebdentown,Kawerau,8,Galbraith Street,"8 Redwood Lane, Wanaka"
1010,Eden Terrace,Hamilton,3,Curran Street,"3 Larch Court, Kelvin Heights, Queenstown"
1011,Edgeware,Auckland,149,John Jennings Drive,"149 Fairfield Road, Hawera"
1021,Elderslea,Kaikohe,191,Mangatutu Road,"191 Taumata Island Road, Taumata Island"
1022,Elgin,Mount Maunganui,6,Browning Street,"6 Roy Street, Riverton"
1023,Ellerslie,Porirua,17,Ashmore Street,"17 Irirangi Road, Greenlane, Auckland"
1024,Elsdon,Levin,62,Goulstone Road,"62 Alfred Street, Fairfield, Hamilton"
1025,Enderley,Porirua,97,Fergusson Drive,"97 Orepuki Riverton Highway, Riverton"
1026,Enner Glynn,Waipu,12/147,Finnsarby Place,"12/147 Albany Highway, Unsworth Heights, Auckland"
1041,Epsom,Auckland,15,Ranzau Road West,"15 Cooks Road, Hunterville"
1042,Epuni,Christchurch,14,Sugden Street,"14 Boulcott Street, Boulcott, Lower Hutt"
1050,Fairfield,Nelson,13,State Highway 1,"13 Amherst Place, Albany, Auckland"
1051,Fairview Downs,Wellington,84,Jubilee Avenue,"84 Waipori Station Road, Waipori Falls"
1052,Fairview Heights,Auckland,113,Michelle Place,"113 Hastings Street, Napier South, Napier"
1060,Farm Cove,Masterton,461A,Bloomfield Terrace,"461A Barrington Street, Spreydon, Christchurch"
1061,Favona,Kerikeri,21,Pokaka Crescent,"21 Quail Crescent, Takamatua"
1062,Fendalton,Rangiora,376,Carnation Court,"376 Taieri Road, Halfway Bush, Dunedin"
1071,Ferndale,Nelson,71,Houhere Place,"71 Wylie Street, Glenholme, Rotorua"
1072,Fernhill,Auckland,273A,Elizabeth Street,"273A Rosebank Road, Avondale, Auckland"
1081,Ferrymead,Palmerston North,63,Christian Road,"63 Waikiekie Station Road, Waiotira"
1140,Fitzherbert,Napier,209,McKenzie Avenue,"209 Creightons Road, Clevedon"
1141,Fitzroy,Napier,16,Rosser Road,"16 Pitcher Place, Glen Eden, Auckland"
1142,Flagstaff,Tauranga,94,Lowry Crescent,"94 Main South Road, Green Island, Dunedin"
1143,Flat Bush,Hampden,21A,Takapu Place,"21A Newton Place, Westbrook, Palmerston North"
1144,Flaxmere,Auckland,167,Walsall Street,"167 Kennedy Road, Marewa, Napier"
1145,Forbury,Auckland,58,Tamblyn Drive,"58 Humber Crescent, Gate Pa, Tauranga"
1147,Forest Lake,Hamilton,57,Old North Road,"57 Bruce Road, Glenfield, Auckland"
1148,Forrest Hill,Auckland,23,Wilkinson Place,"23 Hurst Street, Kaitangata"
1149,Foxton Beach,Auckland,86,Markham Way,"86 Waiau Crescent, Kingswell, Invercargill"
1150,Frankleigh Park,Napier,3,Dayspring Way,"3 Kerepehi Grove, Wainuiomata, Lower Hutt"
1151,Frankton,Auckland,5A,Baffin Grove,"5A Frank Grey Place, Otahuhu, Auckland"
1245,Freemans Bay,Dunedin,6,Young Street,"6 Church Square, Addington, Christchurch"
1246,Frimley,Invercargill,Jan 14,Orere Point Road,"1/14 Shetland Street, Woolston, Christchurch"
1340,Georgetown,Rotorua,653,Mount Albert Road,"653 Te Mata Road, Raglan"
1342,Gladstone,Lower Hutt,91,Tahunanui Drive,"91 Hill Street, Thorndon, Wellington"
1344,Glen Avon,Auckland,15,Torquay Street,"15 Smith Road, Pakaraka"
1345,Glen Eden,Cambridge,3/329,Hill Road,"3/329 Pohutukawa Avenue, Ohope"
1346,Glen Innes,Winton,998,Heta Road,"998 West Coast Road, West Melton"
1347,Glendene,Whangamata,23,Morning Star Place,"23 Scarborough Road, Scarborough, Christchurch"
1348,Glendowie,Cable Bay,73D,Grandview Crescent,"73D Dominion Road, Nawton, Hamilton"
1349,Glenfield,Owaka,3202,Milne Road,"3202 South Head Road, South Head"
1350,Glengarry,Hamilton,36,Flavia Close,"36 Maidstone Road, Ilam, Christchurch"
1351,Gleniti,Lower Hutt,3,Rapaura Road,"3 Waimea Lane, Remuera, Auckland"
1352,Glenleith,Rolleston,38/5,Motatau Road,"38/5 Perekia Street, Albany, Auckland"
1440,Glenross,Papamoa,103,Witheford Drive,"103 Waipuna Road, Mount Wellington, Auckland"
1443,Glenside,Whangarei,15,Broderick Road,"15 Gerard Place, Rangiora"
1445,Glenview,Auckland,25,Cambridge Terrace,"25 Kuripuni Street, Kuripuni, Masterton"
1446,Glenwood,Richmond,523,Kowhai Road,"523 Ahiweka Road, Ormondville"
1541,Golflands,Levin,156A,Tahora Road,"156A Airport Road, Alexandra"
1542,Gonville,Te Puke,22,Evans Street,"22 Maxwells Line, Awapuni, Palmerston North"
1543,Goodwood Heights,Papamoa,2A,Marybank Mews,"2A Northpoint Way, Bell Block, New Plymouth"
1544,Gracefield,Auckland,246,Whitemans Valley Road,"246 Rongoiti Road, Taihape"
1545,Grafton,Papakura,Apr 15,Lambton Quay,"4/15 Waiteata Road, Kelburn, Wellington"
1546,Grandview Heights,Whangarei,2A,Poplar Grove,"2A Roosevelt Road, Western Heights, Rotorua"
1640,Grasmere,Gisborne,8,Keppell Street,"8 Falkirk Street, Dalmore, Dunedin"
1641,Green Bay,Dunedin,46,Egmont Street,"46 Lord Street, Stokes Valley, Lower Hutt"
1642,Green Island,Auckland,307,Mayfield Road,"307 School Road, Te Arai"
1643,Greenhithe,Papakura,190,Crawford Road,"190 Sandringham Road, Sandringham, Auckland"
1740,Greenlane,Te Anau,133,Tramway Road,"133 Reynolds Road, Ratana"
1741,Greenmeadows,Auckland,401B,Mayaro Crescent,"401B Avenue Road West, Hastings"
1742,Grenada North,Auckland,24A,Hurdon Street,"24A Waitote Street, Castlecliff, Whanganui"
1743,Grenada Village,Whanganui,23,Straven Road,"23 Contessa Drive, Glenfield, Auckland"
1744,Grey Lynn,Auckland,28A,Hospital Road,"28A Meridian Street, Port Chalmers, Dunedin"
1745,Grovetown,Tauranga,31,Takahoa Drive,"31 Onslow Road, Mount Eden, Auckland"
1746,Gulf Harbour,Waihi,51,Murphy Road,"51 Ottawa Road, Wainoni, Christchurch"
1840,Half Moon Bay,Mosgiel,108A,Baildon Road,"108A Fourth Avenue, Tauranga"
1841,Halfway Bush,Paraparaumu,31,Sefton Street,"31 Tomahawk Road, Andersons Bay, Dunedin"
1842,Halswell,Auckland,70,Lacebark Drive,"70 Beulah Avenue, Rothesay Bay, Auckland"
1843,Hamilton Central,Feilding,8B,Secretariat Place,"8B Sequoia Crescent, Owhata, Rotorua"
1971,Hamilton East,Whanganui,13,West End Road,"13 Whatuwhiwhi Road, Karikari Peninsula"
2010,Hamilton Lake,Gisborne,21A,Grey Road,"21A Harrybrook Road, Green Bay, Auckland"
2012,Hampstead,Riverton,22,Anzac Road,"22 Roy Street, Newtown, Wellington"
2013,Harbour View,Whanganui,17,Smith Street,"17 Rawhiti Street, Taupo"
2014,Harewood,Dunedin,506,Montgomery Crescent,"506 Turnbull Road, Maitland"
2016,Hargest,Auckland,57,Alexandra Street,"57 Paritutu Road, Spotswood, New Plymouth"
2018,Harrowfield,Christchurch,1408,Hillsborough Road,"1408 Tauwhare Road, Eureka"
2022,Hataitai,Christchurch,Mar 28,Atawhai Road,"3/28 Roberts Road, Te Atatu South, Auckland"
2023,Hatfields Beach,Porirua,119,Droylsden Place,"119 Catherine Street, Windsor, Invercargill"
2024,Hauraki,Christchurch,41,Page Street,"41 Skeets Road, Upper Plain"
2025,Hawthorndale,Opotiki,79A,Manukaka Heights,"79A Goodall Street, Hillsborough, Auckland"
2102,Haywards,Wellington,10,Franklyn Street,"10 Frank Bunce Grove, Flat Bush, Auckland"
2103,Heathcote Valley,Wairoa,60B,Crescent Hills Court,"60B Waihemo Street, Waitangirua, Porirua"
2104,Hei Hei,Te Aroha,37,Garmons Way,"37 Nixon Street, Hamilton East, Hamilton"
2105,Heidelberg,Orewa,69,Harbutt Avenue,"69 Acacia Road, Lake Okareka, Rotorua"
2110,Helensburgh,Auckland,Jan 95,Palmside Street,"1/95 St Johns Road, Saint Johns, Auckland"
2112,Henderson,Richmond,377,Oceanview Road,"377 Ohauiti Road, Ohauiti"
2113,Henderson Valley,Kaikohe,740,Malone Road,"740 Christchurch Akaroa Road, Tai Tapu"
2120,Herald Island,Lower Hutt,3,Hunter Street,"3 Lee Street, Parnell, Auckland"
2121,Heretaunga,Napier,195,Lanes Road,"195 Pigeon Mountain Road, Half Moon Bay, Auckland"
2122,Herne Bay,Gisborne,12A,Nosworthy Street,"12A Oldham Place, Browns Bay, Auckland"
2123,Highbury,Lower Hutt,11/11A,Reads Quay,"11/11A Fife Lane, Miramar, Wellington"
2140,Highcliff,Auckland,19,Percy Street,"19 Hikurangi Street, Trentham, Upper Hutt"
2141,Highfield,Te Kuiti,164,Papamoa Beach Road,"164 Candia Road, Henderson Valley, Auckland"
2142,Highland Park,Whangaparaoa,16,Seifert Road,"16 Randall Street, Richmond, Christchurch"
2143,Highlands Park,Dunedin,63A,Beatrice Tinsley Crescent,"63A King George Avenue, Epsom, Auckland"
2144,Hillcrest,Auckland,7,Solar Road,"7 Scarlock Avenue, Browns Bay, Auckland"
2145,Hillmorton,Auckland,5,Ford Avenue,"5 Motukaraka Point, Pauatahanui"
2146,Hillsborough,Auckland,5,Trigg Place,"5 Boon Street, Manurewa, Auckland"
2147,Hillside,Christchurch,02 Apr,Gow Avenue,"2/4 Hawthorn Crescent, Stokes Valley, Lower Hutt"
2148,Hilltop,Whangamata,46B,South Road,"46B Manaia Road, Tairua"
2149,Hobsonville,Waihi,7,Hair Street,"7 Bean Street, Hillmorton, Christchurch"
2150,Hokowhitu,Nelson,16,Waimahaka Fortification Road,"16 Queen Charlotte Drive, Aotea, Porirua"
2151,Holmes Hill,Ohope,3,Wicklow Terrace,"3 Old Wairoa Road, Papakura"
2153,Homebush,Te Aroha,22,Anna Watson Road,"22 Tapairu Road, Waipawa"
2154,Hoon Hay,Wellington,367,Upper Waiwera Road,"367 Westminster Avenue, Tamatea, Napier"
2155,Hope,Timaru,45,Laughton Street,"45 Middlepark Road, Sockburn, Christchurch"
2156,Horahora,Oamaru,5B,Hazelhurst Line,"5B Valley Road, Mount Maunganui"
2157,Hornby,Christchurch,146,Ngapipi Road,"146 Swanson Road, Henderson, Auckland"
2158,Hornby South,Waimate,63,Kaniere Road,"63 Harbour View Road, Omokoroa"
2159,Horokiwi,Upper Hutt,173,Pipiwai Road,"173 Queen Street, Westport"
2160,Hospital Hill,Methven,27,Cowlishaw Street,"27 Blackhill Road, Tinui"
2240,Houghton Bay,Christchurch,34,Wesleydale Place,"34 Raithburn Terrace, Pokeno"
2241,Howick,Tauranga,4/133,Hislop Street,"4/133 Tipahi Street, Nelson South, Nelson"
2242,Huapai,Auckland,41,Hilltop Avenue,"41 Caernarvon Street, Dinsdale, Hamilton"
2243,Huia,Hamilton,4,Hereford Street,"4 Mountain View Road, Fitzherbert, Palmerston North"
2244,Huntington,Christchurch,15,Sillary Street,"15 Viking Avenue, Hillsborough, Auckland"
2245,Huntington Park,Christchurch,149,Rapallo Place,"149 Whangaparaoa Road, Red Beach"
2246,Huntsbury,Lyttelton,64,Pukenui Road,"64 Karen Crescent, Dinsdale, Hamilton"
2247,Hurdon,Auckland,30,Gunn Road,"30 Joseph Street, Pukemiro"
2248,Hutt Central,Waiuku,85A,Grove Burn Road,"85A Wellesley Road, Napier South, Napier"
2340,Ilam,Kerikeri,01 May,Hunter Avenue,"1/5 Martha Lane, Weymouth, Auckland"
2341,Inner Kaiti,Auckland,212,Glenvar Road,"212 Chatham Road, Flaxmere, Hastings"
2342,Island Bay,Rotorua,75,Symonds Street,"75 Anzac Road, Waiheke Island"
2343,Islington,Gisborne,99,Onslow Road,"99 Highfields Drive, Katikati"
2344,Jervoistown,Lower Hutt,10,Rotowaro Road,"10 Sequoia Place, Pukete, Hamilton"
2345,Johnsonville,Auckland,2,State Highway 1,"2 Dove Place, Taihape"
2440,Kaiata,Whangarei,38A,Rose Road,"38A Ohaupo Road, Melville, Hamilton"
2441,Kaikorai,Havelock North,71,Melville Drive,"71 Whitmore Road, Linton, Palmerston North"
2471,Kainga,Ashburton,116,Cedar Grove,"116 Salerno Rise, Albany Heights, Auckland"
2472,Kaiti,Te Kauwhata,15,Livingstone Street,"15 Moore Road, Lorneville, Invercargill"
2473,Kaiwharawhara,Auckland,89,Takaka Valley Highway,"89 Allum Street, Kohimarama, Auckland"
2474,Kaniere,Riverhead,172,Stewart Street,"172 Peterborough Street, Christchurch Central, Christchurch"
2571,Karaka,Auckland,27,Minginui Road,"27 Omahau Crescent, Twizel"
2576,Karaka Bays,New Plymouth,897B,Forth Street,"897B East Coast Road, Northcross, Auckland"
2577,Karori,Methven,15,Canyon Drive,"15 Havana Rise, Grenada Village, Wellington"
2578,Karoro,Napier,34,Coatesville-Riverhead Highway,"34 Stillwater Place, Westbrook, Palmerston North"
2579,Kawarau Falls,Otaki,100,Bengal Street,"100 Mangamanihi Road, Kaeo"
2580,Kelburn,Christchurch,164,Iliad Place,"164 Seventh View Avenue, Beachlands, Auckland"
2582,Kelson,Auckland,103,Cathedral Square,"103 Bath Road, Riverton"
2583,Kelston,Papakura,35,Hereford Street,"35 O'Halloran Road, Howick, Auckland"
2584,Kelvin Grove,Silverdale,562,Bell Street,"562 McNair Road, Winchester"
2585,Kelvin Heights,Dunedin,41,Chartwell Street,"41 Doran Street, Richmond"
2675,Kenmure,Auckland,401,Orokonui Road,"401 Willowpark Road North, Hastings"
2676,Kensington,Hawera,1/366,Garden Road,"1/366 Annesbrook Drive, Annesbrook, Nelson"
2677,Kew,Christchurch,189,Bellona Place,"189 Newcastle Street, Mahia"
2678,Khandallah,Auckland,36,Fencourt Road,"36 Cullen Street, Mangawhai Heads, Mangawhai"
2679,Kihikihi,Wellington,13,Hayward Street,"13 Laird Street, Castlecliff, Whanganui"
2681,Kilbirnie,Upper Hutt,8,Tweed Road,"8 Tipau Street, Torbay, Auckland"
2682,Kingsland,Cambridge,4,St David Street,"4 Scott Terrace, Temuka"
2683,Kingsley Heights,Dunedin,74,Brampton Court,"74 MacArthur Street, Levin"
2684,Kingston,Auckland,300,Te Mata Road,"300 Scott Street, Tisbury, Invercargill"
2693,Kingswell,Hamilton,14,Eagles Way,"14 Hastings Street, Napier South, Napier"
2694,Kinmont Park,Dunedin,86,Settlers Grove,"86 Victoria Avenue, Remuera, Auckland"
2695,Kohimarama,Auckland,34,Galway Street,"34 Plover Street, One Tree Point, Whangarei"
2696,Korokoro,Auckland,14,Pretoria Street,"14 Manson Street, Gate Pa, Tauranga"
2697,Kuripuni,Christchurch,16,Neill Street,"16 Rue Lavaud, Akaroa"
3010,Laingholm,Wellington,160A,Parapara Road,"160A Kohimarama Road, Kohimarama, Auckland"
3015,Lake Hayes Estate,Auckland,16,Cantina Avenue,"16 Sheehan Road, Te Atatu South, Auckland"
3020,Lansdowne,Auckland,21,Havelock Street,"21 Hopkins Crescent, Kohimarama, Auckland"
3025,Lawyers Head,Blenheim,1,Bridge Street,"1 Corinth Place, Sunnybrook, Rotorua"
3040,Leamington,Tokoroa,68,Garvan Glen,"68 Kennedys Bush Road, Halswell, Christchurch"
3041,Leith Valley,Lower Hutt,10,Cambrian Street,"10 Solway Street, Solway, Masterton"
3042,Liberton,Auckland,7,Bellville Drive,"7 Sanders Avenue, Westown, New Plymouth"
3043,Linton,Ngaruawahia,105,Chilcott Road,"105 Shelly Beach Road, Saint Marys Bay, Auckland"
3044,Linton Camp,Te Puke,2,McMurdo Street,"2 Watene Crescent, Waitara"
3045,Linwood,Lower Hutt,33,Clinker Street,"33 Falcon Street, Newfield, Invercargill"
3046,Little Valley,Hamilton,716,Johnston Street,"716 Moonshine Hill Road, Moonshine Valley"
3047,Long Bay,Auckland,64,Barbados Drive,"64 Hill Street, Tuai"
3048,Longburn,Blenheim,728,Elizabeth Avenue,"728 Redoubt Road, Flat Bush, Auckland"
3049,Longlands,Kaiapoi,12,Herbert Street,"12 Kuaka Road, Oneroa, Waiheke Island"
3060,Lookout Point,Auckland,41,Milmoe Street,"41 Lomond Crescent, Queenstown"
3062,Lower Vogeltown,Waitara,42,Wairau Road,"42 Guy Road, Mosgiel"
3072,Lowry Bay,Hastings,352,Onerahi Road,"352 Hamurana Road, Ngongotaha, Rotorua"
3073,Lucas Heights,Orewa,63C,Great North Road,"63C Field Lane, Waitoki"
3074,Lyall Bay,Palmerston North,395,Watts Road,"395 Thames Highway, Oamaru North, Oamaru"
3076,Lynfield,Invercargill,570,Wallace Road,"570 Gloucester Road, Papamoa Beach, Papamoa"
3077,Lynmouth,Gore,100,Majoribanks Street,"100 Mellons Bay Road, Mellons Bay, Auckland"
3078,Lytton West,Auckland,14,Success Court,"14 Massey Street, Elderslea, Upper Hutt"
3079,Macandrew Bay,Mosgiel,62C,Dinton Street,"62C Peter Buck Road, New Windsor, Auckland"
3081,Maeroa,Whangaparaoa,29,Ravello Rise,"29 Holloway Street, Carterton"
3083,Mahora,Auckland,41,Pirinoa Street,"41 Karewa Parade, Papamoa Beach, Papamoa"
3110,Maia,Whangarei,61,Wanstead Way,"61 Waitaki Street, Bexley, Christchurch"
3112,Maidstone,Auckland,177,Vigor Brown Street,"177 Meremere Road, Mokoia"
3114,Mairangi Bay,Twizel,520/145,Astrolabe Street,"520/145 Nelson Street, Auckland Central, Auckland"
3116,Mairehau,Auckland,20,Mill Street,"20 Goodwin Street, Tirau"
3118,Maitai,New Plymouth,02 Jul,Nairn Street,"2/7 Beveridge Street, Christchurch Central, Christchurch"
3119,Makaraka,Putaruru,20,Helleur Road,"20 Nottingham Avenue, Awapuni, Palmerston North"
3120,Mana,Wanaka,717,Elgin Road,"717 West Coast Road, Oratia, Auckland"
3121,Mangapapa,Akaroa,245,Annandale Street,"245 Crinan Street, Appleby, Invercargill"
3122,Mangaroa,Wanaka,245,Eastglen Road,"245 Victoria Avenue, Hokowhitu, Palmerston North"
3123,Mangawhai Heads,Christchurch,35A,Avonleigh Road,"35A Spencer Street, Crofton Downs, Wellington"
3127,Mangere,Christchurch,9,Normanby Street,"9 Rowses Road, Aranui, Christchurch"
3129,Mangere Bridge,Hamilton,23,Oxford Street,"23 MacAulay Street, Gleniti, Timaru"
3140,Mangere East,Blenheim,22,Tauwhareparae Road,"22 Spinnaker Drive, Te Atatu Peninsula, Auckland"
3141,Manly,Blenheim,13,Glenfiddich Road,"13 McQuarrie Avenue, Wattle Downs, Auckland"
3142,Manor Park,Auckland,11,Castor Bay Road,"11 Oolong Court, Huntington, Hamilton"
3143,Manukau,Gisborne,4,Watersons Line,"4 Lewis Street, Hoon Hay, Christchurch"
3144,Manunui,Auckland,23,Mary Street,"23 Lucinda Place, Glen Eden, Auckland"
3145,Manurewa,Auckland,1,Wetherby Grove,"1 Lincoln Road, Hillmorton, Christchurch"
3146,Manurewa East,Richmond,3,Heke Street,"3 Guardwell Terrace, Mount Albert, Auckland"
3147,Maori Hill,Alexandra,17,Fairchild Avenue,"17 The Circle, Manly, Whangaparaoa"
3148,Maoribank,Papakura,80,Tasman Street,"80 Vista Paku, Pauanui"
3149,Maraenui,Christchurch,108,Colombo Road,"108 Medhurst Road, Mangatawhiri"
3150,Maraetai,Hamilton,7,Seaforth Road,"7 Upham Crescent, Taradale, Napier"
3151,Marchwiel,Wellington,9,Aviemore Drive,"9 Fernhill Place, Karoro, Greymouth"
3152,Marewa,Auckland,May 74,Mangakahia Road,"5/74 Birch Street, Hilltop, Taupo"
3153,Marfell,Christchurch,59,Carmichael Road,"59 St Vincent Avenue, Remuera, Auckland"
3154,Marsden,Leeston,34,Walker Crescent,"34 Sovereign Place, Glenfield, Auckland"
3158,Marybank,Auckland,71,Welcome Bay Road,"71 Cassidy Avenue, Lincoln"
3159,Maryhill,New Plymouth,916,Caroline Heights,"916 Main Rakaia Road, Southbridge"
3160,Massey,Auckland,18,Wilson Road,"18 Jellicoe Road, Manurewa, Auckland"
3161,Matakatia,Auckland,04 Feb,Roy Crescent,"4/2 Kingsway Avenue, Sandringham, Auckland"
3162,Maungaraki,Hastings,12,Newnham Street,"12 Okoromai Views, Gulf Harbour, Whangaparaoa"
3163,Maunu,Eltham,80,Pharazyn Street,"80 Broadway, Waitara"
3164,Maupuia,Wellington,12,Palisade Place,"12 Woodlark Close, Weymouth, Auckland"
3166,Mayfair,Auckland,10,Range Road,"10 William Woods Court, Flat Bush, Auckland"
3167,Mayfield,Paraparaumu,302,Esdaile Road,"302 Aickin Road, Whangamata"
3168,Meadowbank,Auckland,15C,Tombleson Road,"15C Moffitt Place, Mangere East, Auckland"
3169,Mechanics Bay,Auckland,150A,Skerman Street,"150A Beach Road, Kaikoura"
3171,Meeanee,Ashburton,59,Harper Street,"59 Spottiswoode Street, Tainui, Dunedin"
3172,Melling,Auckland,16,Weldene Avenue,"16 MacLean Street, Wallaceville, Upper Hutt"
3173,Mellons Bay,Nelson,109,Captain Scott Road,"109 Northwood Avenue, Mahora, Hastings"
3175,Melrose,Auckland,27,Forbes Street,"27 Kitenui Avenue, Mount Albert, Auckland"
3176,Melville,Stewart Island,44,Menin Road,"44 Wroxton Terrace, Merivale, Christchurch"
3177,Merivale,Te Awamutu,41,Durham Road,"41 Streamside Court, Woolston, Christchurch"
3178,Merrilands,Christchurch,513,Tweed Street,"513 Bypass Road, Ranfurly"
3182,Middleton,Christchurch,483,Broom Street,"483 Marine Parade, Napier South, Napier"
3183,Milford,Hamilton,19D,Hunter Street,"19D Jones Crescent, Melville, Hamilton"
3186,Milson,Waiuku,9,Malcolm Terrace,"9 Carlyle Road, Mosgiel"
3187,Miramar,Kawakawa,12A,Brian Crescent,"12A Mail Avenue, Weymouth, Auckland"
3188,Mission Bay,Eketahuna,423C,Alma Road,"423C Youngson Road, Whakamarama"
3189,Moana,Napier,50,Dacre Street,"50 Cridges Road, Darfield"
3191,Moera,Hawera,3,Anderson Road,"3 Broken Hill Road, Kenepuru, Porirua"
3192,Monaco,Whanganui,57,Fordyce Avenue,"57 Balmain Road, Birkenhead, Auckland"
3193,Moncks Bay,Auckland,12A,Landing Drive,"12A Springfield Road, Springfield, Rotorua"
3194,Morningside,Morrinsville,115,Onslow Street,"115 Elsinore Close, Whangamata"
3196,Mornington,Waipu,5,Pakiri Road,"5 Cambrian Lane, Flagstaff, Hamilton"
3197,Motu Rimu,Whanganui,51,Settlement Road,"51 Revans Street, Featherston"
3198,Moturoa,Matamata,2/134,Turu Road,"2/134 Barrett Road, Temple View, Hamilton"
3199,Mount Albert,Christchurch,336,Pukaki Road,"336 King Street, Temuka"
3200,Mount Cook,Takaka,128,West Crescent,"128 Kura Road, Matiere"
3204,Mount Eden,Palmerston North,973,The Fairways,"973 Otewa Road, Otewa"
3206,Mount Pleasant,Motueka,70,Manners Street,"70 Princes Street, Northcote Point, Auckland"
3210,Mount Roskill,Christchurch,173,Andrew Baxter Drive,"173 Lees Gully Road, Pollok"
3214,Mount Victoria,Auckland,20,Taranui Place,"20 Rene Way, Huntington, Hamilton"
3216,Mount Wellington,Auckland,98,Chain Hills Road,"98 Khandallah Road, Khandallah, Wellington"
3218,Murrays Bay,Auckland,1316,Tollemache Place,"1316 Fergusson Drive, Brown Owl, Upper Hutt"
3225,Musselburgh,Rangiora,127A,Tawaki Avenue,"127A Green Road, Dairy Flat"
3240,Naenae,Christchurch,50,Epsom Avenue,"50 Herdman Street, Waterview, Auckland"
3241,Napier South,Tauranga,4,Horizon Way,"4 Atherton Place, Wanaka"
3242,Narrow Neck,Auckland,857,Leithfield Road,"857 Round Hill Road, Kia Ora"
3243,Nawton,Auckland,41,Tongariro Road,"41 Carisbrook Crescent, Papakura"
3244,Nelson Airport,Wellington,32,Eden Terrace,"32 Buckleton Road, Tawharanui Peninsula"
3245,Nelson South,Katikati,22,Scott Drive,"22 Braeburn Drive, Hornby, Christchurch"
3246,Netherby,Auckland,2C,Muritai Road,"2C Charlenne Close, Ranui, Auckland"
3247,New Brighton,Palmerston North,238,Lookout Drive,"238 Dowse Drive, Maungaraki, Lower Hutt"
3248,New Lynn,Westport,19A,Austin Street,"19A Franklin Avenue, Hokowhitu, Palmerston North"
3249,New Windsor,Palmerston North,21,Jutland Street,"21 McNaughten Road, Karioitahi"
3251,Newfield,Auckland,01 Jul,Palmer Avenue,"1/7 Pakuranga Road, Pakuranga, Auckland"
3252,Newlands,Whangarei,18,Chapman Street,"18 Myrtle Drive, Omokoroa"
3253,Newmarket,Rotorua,146,Whaanga Road,"146 Rolla Street, Normanby, Dunedin"
3254,Newtown,Auckland,7,Maungakawa Road,"7 Hobbs Grove, Epuni, Lower Hutt"
3255,Ngaio,Auckland,11,Acton Road,"11 Les Fisher Place, Pukekohe"
3256,Ngauranga,Auckland,91,Godley Road,"91 Ruskin Road, Newlands, Wellington"
3257,Nikau Valley,Auckland,13,Glenfield Crescent,"13 Wallace Street, Herne Bay, Auckland"
3260,Normanby,Paraparaumu,54,Wallis Road,"54 Upper Queen Street, Eden Terrace, Auckland"
3261,Normandale,Wellington,121,Milford Road,"121 Jickell Street, Hokowhitu, Palmerston North"
3262,North Dunedin,Levin,Jan 51,Colchester Place,"1/51 Stanley Avenue, Milford, Auckland"
3263,North East Valley,Hamilton,66,Church Road,"66 Margate Avenue, Flaxmere, Hastings"
3264,North New Brighton,Wellington,10,Chatsworth Place,"10 Strathmore Crescent, Roslyn, Dunedin"
3265,Northcote,Wellington,54,Tarr Road,"54 Milns Road, Halswell, Christchurch"
3266,Northcote Point,Palmerston North,23,Milburn Street,"23 Thompson Road, Bluff Hill, Napier"
3281,Northcross,Tauranga,43,Taniwha Street,"43 Charles Upham Avenue, Hillmorton, Christchurch"
3282,Northgate,Auckland,211,Glastry Close,"211 Victoria Avenue, Remuera, Auckland"
3283,Northland,New Plymouth,28,Rue Lavaud,"28 Rosetti Rise, West Harbour, Auckland"
3284,Northpark,Auckland,104,Mason Avenue,"104 Wellesley Road, Napier South, Napier"
3285,Northwood,Auckland,31,Rose Street,"31 Charles Street, Kamo, Whangarei"
3288,Nukuhau,Carterton,21A,Great South Road,"21A Shackleton Road, Mount Eden, Auckland"
3289,Oamaru North,Christchurch,24,Whangaparapara Road,"24 Esmeralda Avenue, Avondale, Auckland"
3290,Ocean Beach,Waihi Beach,4B,Alexandra Street,"4B Colonial Place, Kelvin Grove, Palmerston North"
3293,Ocean Grove,Opotiki,41,Waima Valley Road,"41 Kitenga Road, Flat Bush, Auckland"
3295,Ocean View,Auckland,108,Wainui Road,"108 Saddleback Rise, Murrays Bay, Auckland"
3296,Oceanview,Auckland,69,Friedlanders Road,"69 Victoria Street, Hamilton Central, Hamilton"
3297,Ohakea,Wellington,3,Gollan Road,"3 Mako Avenue, Whiritoa"
3300,Ohariu,Christchurch,10,Barton Road,"10 Kopiko Way, Brooklyn, Wellington"
3310,Okitu,Christchurch,5B,Higgins Street,"5B Peter Snell Street, Whakatane"
3320,Omiha,Auckland,172B,Porangahau Road,"172B Guppy Road, Taradale, Napier"
3330,One Tree Hill,Greymouth,160,Parekawa Drive,"160 Exmouth Road, Northcote, Auckland"
3332,Onehunga,Christchurch,183A,Salisbury Street,"183A Memorial Avenue, Burnside, Christchurch"
3334,Onekawa,Kaiapoi,105,Tiri Road,"105 Tui Road, Papatoetoe, Auckland"
3340,Onerahi,Dunedin,71,Bassant Avenue,"71 Belvedere Avenue, Waikanae"
3341,Oneroa,Te Awamutu,15,Sandspit Road,"15 Fiona Crescent, Feilding"
3342,Onetangi,Christchurch,6,Escalona Street,"6 South Street, Petone, Lower Hutt"
3343,Opaheke,Auckland,2,Omahu Road,"2 O'Rourke Place, Casebrook, Christchurch"
3351,Opawa,Waiouru,80,Arrowtown-Lake Hayes Road,"80 Mary Dreaver Street, New Windsor, Auckland"
3352,Opoho,Nelson,63,Seapoint Road,"63 St Andrews Road, Epsom, Auckland"
3353,Orakei,Palmerston North,3,Hereheretau Road,"3 Faulkland Drive, Witherlea, Blenheim"
3360,Oratia,Auckland,3,Hampshire Street,"3 Long Acre Drive, Wanaka"
3371,Oriental Bay,Auckland,70,Yaldhurst Road,"70 Mayfair Crescent, Mairangi Bay, Auckland"
3372,Ostend,Masterton,3/137,Tawhai Place,"3/137 Tamaki Drive, Mission Bay, Auckland"
3373,Otahuhu,Waitara,172,George Bolt Street,"172 Lamond Street East, Hargest, Invercargill"
3374,Otaihanga,Auckland,18,Coronation Road,"18 Onetaunga Road, Chatswood, Auckland"
3375,Otaki Beach,Hamilton,4070,Vigor Brown Street,"4070 Great North Road, Glen Eden, Auckland"
3377,Otamatea,Whangarei,22,Porter Crescent,"22 Majestic Chance, Seaward Bush, Invercargill"
3378,Otangarei,Dunedin,10A,Windoma Circle,"10A Eaton Road, Hillsborough, Auckland"
3379,Otara,Matamata,15A,Maude Street,"15A Tawera Road, Greenlane, Auckland"
3380,Oteha,Auckland,14B,West Coast Road,"14B Tawera Road, Greenlane, Auckland"
3381,Outer Kaiti,Christchurch,30,Rahuikiri Road,"30 Wharf Road, Pigeon Bay"
3382,Owhiro Bay,Auckland,53,Tay Street,"53 Andesite Drive, Rolleston"
3391,Pahurehure,Auckland,119,Snowdon Place,"119 Harper Road, Waimarama"
3392,Pakuranga,Hamilton,30,Tarras Grove,"30 Mill Road, Waitahanui"
3393,Pakuranga Heights,Whanganui,17,Clements Road,"17 Cedar Road, Te Awanga"
3400,Pakuratahi,Cambridge,11,Ngatiawa Street,"11 Johnson Road, Te Uri"
3401,Palm Beach,Lower Hutt,187,Country Way,"187 Harrisons Road, Te Oka"
3410,Pandora,Masterton,43,Lascelles Street,"43 The Bullock Track, Mahurangi West"
3411,Panmure,Mosgiel,336,Stone Street,"336 Apley Road, Puketapu"
3415,Papakowhai,Taumarunui,2A,Rakeiora Grove,"2A Totara Street, Waipukurau"
3420,Papanui,Opotiki,104,Rata Street,"104 Harbour View Road, Omokoroa"
3421,Paparangi,Christchurch,48,Weraroa Road,"48 Woodstock Road, Forrest Hill, Auckland"
3432,Papatoetoe,Auckland,503A,Mako View,"503A Alexandra Street, Hastings"
3434,Parahaki,Wellington,159G,Oropi Road,"159G Rutherglen Road, Marsden, Greymouth"
3440,Paraparaumu Beach,Invercargill,59,Racecourse Road,"59 Waitane Road, Oaro"
3441,Parau,Auckland,288,Landsdowne Terrace,"288 Kepa Road, Mission Bay, Auckland"
3442,Paremata,Auckland,18,Dey Street,"18 Dawson Road, Otara, Auckland"
3443,Paremoremo,Auckland,44,Villa Street,"44 Donnell Avenue, Favona, Auckland"
3444,Parklands,Auckland,366D,Taylor Road,"366D Huia Road, Titirangi, Auckland"
3445,Parkside,Christchurch,362,Meadway,"362 Rapson Road, Kaukapakapa"
3450,Parkvale,Waiuku,15,Every Street,"15 Rata Street, Halfmoon Bay, Stewart Island"
3451,Parnell,Auckland,11,Ambury Road,"11 Holsten Place, Massey, Auckland"
3471,Paroa,Auckland,7,Hamilton Avenue,"7 Cottrell Crescent, Onekawa, Napier"
3472,Penrose,Auckland,64A/30,Adams Street,"64A/30 Ambassador Glade, Orewa"
3473,Petone,Auckland,249,Landsdowne Road,"249 Logan Road, Buckland"
3474,Phillipstown,Temuka,48,Ngahuia Place,"48 Willcott Street, Mount Albert, Auckland"
3475,Pine Hill,Marton,64,Mill Road,"64 Stafford Street, Cambridge"
3481,Pinehaven,Auckland,99,Glucina Place,"99 Edgar Road, Orton"
3482,Pinehill,Auckland,302,Disraeli Street,"302 Cowan Road, Hunua"
3483,Pipitea,Nelson,12,Armitage Street,"12 Alloway Street, Avondale, Christchurch"
3484,Pirimai,Timaru,16,Oromahoe Road,"16 Mamaku Grove, Kaiwaka"
3485,Plimmerton,Paraparaumu,1507,Oak Tree Lane,"1507 Otautau Nightcaps Road, Wairio"
3491,Point Chevalier,Takapau,9,Poto Road,"9 Bell Street, Otaki"
3492,Point England,Ohakune,Jan 16,Kenrick Street,"1/16 Laurie Avenue, Papakura"
3493,Point Howard,Wellington,12,Baden Powell Place,"12 Barrie Street, Addington, Christchurch"
3494,Ponsonby,Paraparaumu,18,Stuart Road,"18 Memphis Grove, Totara Park, Upper Hutt"
3495,Poraiti,Auckland,63,Moa Street,"63 MacDonald Street, Marchwiel, Timaru"
3496,Porirua East,Dunedin,202,McCallum Drive,"202 Taieri Mouth Road, Kuri Bush"
3500,Port Nelson,Auckland,Jan 64,Garlands Road,"1/64 Hutt Road, Petone, Lower Hutt"
3503,Port Taranaki,Auckland,19,Falcon Street,"19 Hiwihau Place, Glenfield, Auckland"
3506,Port Whangarei,Auckland,9,Aurora Avenue,"9 Worcester Road, Meadowbank, Auckland"
3508,Portobello,Hamilton,99,Gift Street,"99 Onerahi Road, Onerahi, Whangarei"
3510,Prestonville,Palmerston North,27,Tui Road,"27 Sir William Pickering Drive, Burnside, Christchurch"
3540,Pukete,Bulls,43,Pompallier Terrace,"43 St James Avenue, Hanmer Springs"
3541,Putiki,Waiheke Island,35A,Kilmarnock Street,"35A Graham Street, Hamilton East, Hamilton"
3542,Queens Park,Auckland,16,St Bathans Loop Road,"16 Sherwood Lane, Cashmere, Christchurch"
3543,Queenwood,Hastings,122A,Astrid Lane,"122A Lyttelton Street, Spreydon, Christchurch"
3544,Rahu Saddle,Timaru,5,Rogers Street,"5 Sprott Road, Kohimarama, Auckland"
3545,Rainbow Point,Porirua,2,Matapihi Station Road,"2 Hill Street, Kaka Point"
3546,Randwick Park,Auckland,29,Great South Road,"29 Savage Avenue, Waihi Beach"
3547,Rangatira Park,Ruawai,728,Ambassador Glade,"728 Kane Road, Hawea Flat"
3574,Ranui,Auckland,68,Great South Road,"68 Onetaunga Road, Chatswood, Auckland"
3575,Ranui Heights,Auckland,35,Paroa Road,"35 Percy Cameron Street, Avalon, Lower Hutt"
3576,Rapahoe,Christchurch,30,Kaipi Road,"30 Girrahween Drive, Totara Vale, Auckland"
3577,Raumanga,Auckland,265,Awaruku Road,"265 Queens Drive, Lyall Bay, Wellington"
3578,Raumati Beach,Auckland,24,Davis Strongman Place,"24 Wharf Road, Coromandel"
3579,Raumati South,Winton,42,Kipling Avenue,"42 Hassan Drive, Massey, Auckland"
3581,Raureka,Waiheke Island,390,Tauranga-a-Ika Street,"390 Waihola Highway, Milburn"
3582,Ravensbourne,Ohaupo,44,Bracebridge Street,"44 Orly Avenue, Mangere, Auckland"
3583,Red Hill,Dunedin,40,Waikato Place,"40 Dorking Road, Brooklyn, Wellington"
3584,Redcliffs,Dunedin,02 Sep,Riverton Wallacetown Highway,"2/9 Melwood Drive, Warkworth"
3591,Redwood,Rangiora,41,Karaka Crescent,"41 Whittaker Road, Te Pahu"
3592,Redwoodtown,Dunedin,16,Tokomaru Drive,"16 Glendale Drive, Dinsdale, Hamilton"
3597,Regent,Auckland,13,Howick Road,"13 Clare Street, Cambridge"
3600,Remuera,Dunedin,1,Lippiatt Road,"1 Kestrel Lane, Kinloch"
3610,Riccarton,Ngaruawahia,180,Kenwood Drive,"180 Tutere Street, Waikanae Beach, Waikanae"
3611,Richmond,Auckland,60,Edinburgh Street,"60 Daltons Road, Newbury"
3620,Richmond Heights,Auckland,35A,Valintine Road,"35A Imlay Crescent, Ngaio, Wellington"
3640,Richmond Hill,Auckland,8,Bridge Street,"8 Totara View Crescent, Otematata"
3641,Riverdale,Auckland,9,Haven Road,"9 Hutchinsons Road, Bucklands Beach, Auckland"
3642,Riverlea,Auckland,39,Selwyn Street,"39 Canongate, Dunedin Central, Dunedin"
3643,Riversdale,Dunedin,35A,George Street,"35A Matai Road, Stanmore Bay, Whangaparaoa"
3671,Riverside,Auckland,222,Waller Avenue,"222 Rolleston Drive, Rolleston"
3672,Riverstone Terraces,Christchurch,56,East Coast Road,"56 Stuart Crescent, Masterton"
3673,Rockdale,Kaiapoi,458,Stamford Park Road,"458 Awahuri Feilding Road, Awahuri"
3674,Rongotai,Auckland,Mar 54,Matai Crescent,"3/54 Avenue Road, West End, Timaru"
3681,Rosedale,Hamilton,13,Northland Road,"13 Harrison Lane, Okaihau"
3682,Rosehill,Christchurch,91,Boucher Avenue,"91 Courtenay Drive, Kaiapoi"
3691,Roseneath,Auckland,46,Johnston Street,"46 Seaforth Road, Waihi Beach"
3700,Roslyn,Hastings,42,Westbourne Road,"42 Marbleleaf Lane, Albert Town"
3710,Rothesay Bay,Napier,32,Karitane Drive,"32 Rogers Road, Manurewa, Auckland"
3720,Rototuna,Kaiapoi,98,McBreen Avenue,"98 Moire Road, West Harbour, Auckland"
3721,Rototuna North,Taupo,6B,Elizabeth Place,"6B Beach Road, Orewa"
3740,Royal Oak,Auckland,18,Tasman Street,"18 Appaloosa Street, Karaka"
3741,Ruby Bay,Auckland,15,Federal Street,"15 St Josephs Court, Sydenham, Christchurch"
3742,Russley,Kumeu,8,State Highway 30,"8 Thyme Crescent, Alexandra"
3771,Rutherglen,Gore,57,Andros Place,"57 Main Street, Fairlie"
3772,Saint Albans,Pahiatua,23,Ballance Street,"23 Hercules Street, Shirley, Christchurch"
3781,Saint Andrews,Oamaru,21,Mathers Road,"21 Henderson Street, Mosgiel"
3782,Saint Clair,Auckland,84,Tarbert Street,"84 Park Road, Katikati"
3784,Saint Johns,Papakura,3,Fourth Avenue,"3 Thornton Green, Karaka"
3791,Saint Johns Hill,Christchurch,53,The Strand,"53 Berkeley Road, Wainuiomata, Lower Hutt"
3792,Saint Kilda,Murupara,10,Chestnut Court,"10 Bahama Place, Clover Park, Auckland"
3793,Saint Leonards,Wellington,46,Overdale Road,"46 Sevenoaks Drive, Bryndwr, Christchurch"
3794,Saint Martins,Lower Hutt,10,Taupo View Road,"10 Knowles Street, Terrace End, Palmerston North"
3800,Saint Marys Bay,Hamilton,165A,Dunkeld Drive,"165A Waikawa Road, Picton"
3802,Sandringham,New Plymouth,229,Strabo Place,"229 Pukeatua Road, Maungatapere"
3803,Sawyers Bay,Kerikeri,15,Great South Road,"15 Glamorgan Avenue, Tamatea, Napier"
3840,Schnapper Rock,Mosgiel,5,Elizabeth Street,"5 Waitorupai Way, Matapouri"
3841,Seatoun,Whangarei,02 Feb,Fountain Place,"2/2 Kamo Street, Dannevirke"
3843,Seaview,Auckland,38,Tawa Street,"38 Koppens Road, Tamahere"
3872,Seaward Bush,Lower Hutt,4,Silverhope Bush Road,"4 Horomatangi Place, Kuratau"
3873,Shamrock Park,Papakura,28,Highfields Terrace,"28 McCahon Place, Titirangi, Auckland"
3874,Shelly Park,Christchurch,52,Hibiscus Coast Highway,"52 Margaret Street, Glengarry, Invercargill"
3875,Shiel Hill,Auckland,71,Challinor Street,"71 Heretaunga Street, Palmerston North"
3876,Shirley,Palmerston North,241,Duke Street,"241 Buchanans Road, Yaldhurst, Christchurch"
3877,Silverdale,Oamaru,1210A,Peel Street,"1210A Carrington Road, Hurworth"
3878,Silverstream,Auckland,5820,East Tamaki Road,"5820 Kenepuru Road, Waitaria Bay"
3879,Smithfield,Pauanui,158,Mahara Avenue,"158 MacKenzie Drive, Twizel"
3880,Sockburn,Auckland,8,Kervil Avenue,"8 Vickerman Street, Otara, Auckland"
3881,Solway,Auckland,13,Graham Collins Drive,"13 Sheffield Street, Matamata"
3882,Somerfield,Wellington,2,Argelins Road,"2 Huanui Road, Glenbervie"
3883,Somerville,Christchurch,623,Charlemont Street,"623 Selwyn Road, Rolleston"
3885,South Dunedin,Auckland,28,Matipo Street,"28 Middleton Road, Johnsonville, Wellington"
3886,South Hill,Greymouth,22A,Pencarrow Street,"22A Vine Street, Mangere East, Auckland"
3889,South New Brighton,Milton,28,Rahiri Street,"28 East Road, Shannon"
3894,Southgate,Red Beach,28,Marama Crescent,"28 Orakei Street, Tahunanui, Nelson"
3895,Southshore,Christchurch,208,Tobago Crescent,"208 Guyton Street, Whanganui"
3900,Spotswood,Papamoa,104/20,Grampian Street,"104/20 Wyndham Street, Auckland Central, Auckland"
3910,Spreydon,Gore,3,East Coast Road,"3 Havelock Street, Mornington, Wellington"
3912,Springlands,Tauranga,3,Cowan Road,"3 Bullock Street, Allenton, Ashburton"
3920,Springvale,Auckland,161-169,Parawai Road,"161-169 Station Road, Penrose, Auckland"
3924,St Heliers,Waimate,13,High Street,"13 Victory Crescent, Tawa, Wellington"
3926,Stanley Point,Okato,30,Tuturu View,"30 Oakwood Mews, Prebbleton"
3940,Stanmore Bay,Whangarei,7,Gloucester Street,"7 Albert Street, Waihi"
3941,Stepneyville,Mapua,44,Bedford Road,"44 Puriri Street, Te Aroha"
3942,Stillwater,Hamilton,02 Sep,Seatoun Heights Road,"2/9 Castledine Crescent, Glen Innes, Auckland"
3943,Stoke,Papakura,63A,Takapu Street,"63A Sydney Street, Windsor, Invercargill"
3944,Stokes Valley,Whanganui,70,James Cook Street,"70 Poplar Lane, Edgecumbe"
3945,Stonefields,Wakefield,6,Huffey Street,"6 Romilly Court, Papakura"
3946,Strandon,Auckland,21,Kakahu Road,"21 Cheviot Street, Woodhill, Whangarei"
3947,Strathern,Wellington,26,Torquay Street,"26 Rugby Street, Highfield, Timaru"
3948,Strathmore Park,Auckland,72A,Butler Road,"72A Dyers Pass Road, Cashmere, Christchurch"
3949,Strowan,Auckland,54,Carlton Street,"54 Bledisloe Crescent, Wainuiomata, Lower Hutt"
3970,Styx,Hamilton,50,Ormsby Street,"50 Chiltons Road, Swannanoa"
3971,Sumner,Taumarunui,4279,Wairakei Avenue,"4279 Great North Road, Glendene, Auckland"
3972,Sunnyhills,Rangiora,18,Murphys Road,"18 Sample Road, Albany, Auckland"
3973,Sunnynook,Auckland,1/193,Waihola Highway,"1/193 Don Buck Road, Massey, Auckland"
3974,Sunnyvale,Auckland,21,McIvor Road,"21 Foyle Street, Oamaru North, Oamaru"
3975,Sunshine Bay,Riverton,87,Kiwi Street,"87 Manuwai Drive, Matua, Tauranga"
3976,Surfdale,Whangaparaoa,377,Gordon Street,"377 Breezes Road, Aranui, Christchurch"
3977,Swanson,Auckland,124,Sapperton Drive,"124 Mill Road, Otaki"
3978,Sydenham,Tauranga,6,Kimpton Road,"6 Seaview Avenue, Te Puru"
3979,Tahunanui,Whanganui,5,State Highway 4,"5 Arrowfield Drive, Pyes Pa, Tauranga"
3980,Tainui,Auckland,148,Puketapu Grove,"148 Hutt Road, Petone, Lower Hutt"
3981,Taita,Whangaparaoa,2,Opou Road,"2 La Mar Lane, Sumner, Christchurch"
3982,Takapuna,Wellington,85,Monte Cassino Place,"85 Red Beach Road, Red Beach"
3983,Takapuwahia,Auckland,347,Grey Street,"347 Foster Road, Waimauku"
3985,Takaro,Napier,10,Medway Street,"10 Meadowbank Rise, Bethlehem, Tauranga"
3986,Tamarau,Mount Maunganui,12,Papanui Street,"12 Kinver Place, Spreydon, Christchurch"
3987,Tamatea,Auckland,8,Golfland Drive,"8 Amber Grove, Burwood, Christchurch"
3988,Taradale,Tauranga,332,Puhara Avenue,"332 Puketapu Road, Taradale, Napier"
3989,Tauhara,Nelson,403,Waiwaka Terrace,"403 Allanton Road, Outram"
3990,Tawa,Auckland,19,Drumston Place,"19 Tutaritari Road, Hahei"
3991,Tawhero,Lower Hutt,26/56,King Street South,"26/56 Gladson Avenue, Sockburn, Christchurch"
3992,Taylorville,Waiouru,53,Mark Ball Drive,"53 Richardson Road, Mount Albert, Auckland"
3993,Te Aro,Waimate,179,Reeves Road,"179 Golf Road, Titirangi, Auckland"
3994,Te Atatu Peninsula,Timaru,410,Cust Road,"410 Herbert Street, Windsor, Invercargill"
3995,Te Atatu South,Te Awamutu,140,Mount Albert Road,"140 Otipua Road, Watlington, Timaru"
3996,Te Awa,Nelson,208,Foster Road,"208 King Road, Mangawhai"
3997,Te Hapara,Tokoroa,9A,Pine Drive,"9A France Road, Bluff Hill, Napier"
3998,Te Marua,Lower Hutt,21,Ratau Street,"21 Umukaria Road, Owhata, Rotorua"
4010,Te Rapa,Hamilton,10,State Highway 27,"10 Waianiwa Place, Tokoroa"
4022,Te Rapa Park,Christchurch,12,Georges Drive,"12 Harrow Street, Dunedin Central, Dunedin"
4032,Temple View,Auckland,12,Bank Street,"12 Evesham Place, Newlands, Wellington"
4040,Templeton,Clyde,100B/113,Strathearn Road,"100B/113 Worcester Street, Christchurch Central, Christchurch"
4041,Terrace End,Christchurch,53,Little Akaloa Road,"53 Ranui Avenue, Ranui, Auckland"
4042,The Brook,Christchurch,49,Torrens Road,"49 Campbell Street, Geraldine"
4043,The Gardens,Lower Hutt,86A,Waihirere Drive,"86A Avondale Road, Avondale, Auckland"
4044,The Glen,Te Kuiti,6,Drew Street,"6 Ivy Place, Matua, Tauranga"
4045,The Wood,Christchurch,106,Fergusson Drive,"106 Lees Ferry Road, Atarau"
4046,Thorndon,Oamaru,40B,Blackhead Road,"40B West Coast Road, Glen Eden, Auckland"
4047,Three Kings,Auckland,55,Longford Park Drive,"55 Garden Road, Avalon, Lower Hutt"
4048,Tikipunga,Auckland,21,Station Road,"21 Piko Street, Titahi Bay, Porirua"
4049,Timaru Port,Palmerston North,10A,Yule Street,"10A Mays Road, St Albans, Christchurch"
4050,Timberlea,Porirua,1029,Wairiki Road,"1029 Foxton Shannon Road, Moutoa"
4051,Tindalls Beach,Auckland,Jan 15,Clyde Street,"1/15 Lavas Place, Mount Wellington, Auckland"
4052,Tinwald,Mount Maunganui,34,Bodi Place,"34 Ferry Road, Woodend Beach, Woodend"
4071,Tirohanga,Nelson,49,Regent Street,"49 Harbour View Road, Omokoroa"
4072,Tisbury,Whanganui,88,Marshall Laing Avenue,"88 Rosario Crescent, Red Beach"
4073,Titahi Bay,Palmerston North,44A,Kaiwaka Road,"44A Albert Road, Devonport, Auckland"
4075,Titirangi,Raglan,58,Intrepid Crescent,"58 Kulim Avenue, Otumoetai, Tauranga"
4077,Toi Toi,Dunedin,292,Iranui Road,"292 Crane Road, Kauri"
4078,Tomoana,Dunedin,1/25A,Taipa View Road,"1/25A Balmain Road, Birkenhead, Auckland"
4079,Torbay,Auckland,251,Adelaide Road,"251 Harewood Road, Bishopdale, Christchurch"
4081,Totara Heights,Oamaru,2,Upland Street,"2 Orohena Close, Northpark, Auckland"
4082,Totara Park,Cambridge,17B,Lizzie Lane,"17B Ngatoto Street, Khandallah, Wellington"
4083,Totara Vale,Wanaka,58,Nikau Street,"58 Kirby Street, Glendene, Auckland"
4086,Trentham,Woodend,39,State Highway 2,"39 Chamberlain Avenue, Amberley"
4087,Turnbull Thomson Park,Christchurch,57A,Clifton Drive,"57A Waimairi Road, Upper Riccarton, Christchurch"
4091,Two Mile Bay,Taupo,32,McFadzean Drive,"32 John Rymer Place, Kohimarama, Auckland"
4092,Unsworth Heights,Thames,33,Duncansby Road,"33 Nikau Street, Inglewood"
4093,Upper Riccarton,Kaiapoi,20,Amokura Street,"20 Kelvin Street, Invercargill"
4094,Upper Vogeltown,Rakaia,176,Morrison Road,"176 Washpen Road, Windwhistle"
4102,Vauxhall,Rolleston,37,Clare Street,"37 Simpson Road, Papamoa Beach, Papamoa"
4104,Vogeltown,Whanganui,36,Roycroft Street,"36 Canongate, Dunedin Central, Dunedin"
4108,Wadestown,Cambridge,715B,Upper Buller Gorge Road,"715B South Hillend Dipton Road, South Hillend"
4110,Waiake,Wellington,1943,Waimaire Avenue,"1943 Tutukau Road, Ohakuri"
4112,Waiareka Junction,Auckland,506,Field Terrace,"506 Whangaparaoa Road, Stanmore Bay, Whangaparaoa"
4120,Waiatarua,Morrinsville,309,Postman Road,"309 Lochheads Road, Mount Somers"
4122,Waihopai,Thames,7C,Union Street,"7C Urquhart Street, Whanganui"
4130,Waikanae Beach,Wellington,35,Manga Pirau Street,"35 Denver Avenue, Sunnyvale, Auckland"
4140,Waikawa,Rotorua,35,Bedford Avenue,"35 Gardner Avenue, New Lynn, Auckland"
4141,Waikiwi,Auckland,5,Taupo Road,"5 Susan Place, Deanwell, Hamilton"
4142,Waimairi Beach,Auckland,2/141,Paul Crescent,"2/141 Waiwhetu Road, Waterloo, Lower Hutt"
4143,Waimataitai,Orewa,9,Lyndon Street,"9 Francis Curtis Avenue, Blockhouse Bay, Auckland"
4144,Wainoni,Auckland,2,Bob Charles Drive,"2 Dornoch Street, Kew, Dunedin"
4145,Wainui,New Plymouth,8,Beresford Street,"8 Holborn Drive, Stokes Valley, Lower Hutt"
4146,Wainuiomata,Auckland,312,Birchwood Lane,"312 Main South Road, Hornby, Christchurch"
4147,Waiouru Military Camp,Dunedin,202,Tumbledown Bay Road,"202 New Windsor Road, New Windsor, Auckland"
4148,Waipahihi,Hamilton,9,Kuku East Road,"9 Kea Street, Riccarton, Christchurch"
4149,Wairakei,Christchurch,2,Devon Road,"2 Puroto Street, Meadowbank, Auckland"
4153,Wairau Valley,Masterton,27,Bird Grove,"27 Gawler Street, Te Horo Beach"
4154,Waitakere,Pirongia,10,The Rise,"10 Brighton Way, Pyes Pa, Tauranga"
4155,Waitangirua,Timaru,35,East Coast Road,"35 Ferry Road, Wade Heads, Whangaparaoa"
4156,Waitarere Beach,Hastings,Jun 17,Barbados Way,"6/17 Commons Avenue, Mount Maunganui"
4157,Waiwhakaiho,Richmond,954,Fyfe Road,"954 Matapouri Road, Matapouri"
4158,Waiwhetu,Christchurch,5,Cashmere View Street,"5 Swinburne Street, Blockhouse Bay, Auckland"
4159,Wakari,Carterton,1/156,Tawhai Street,"1/156 Selwyn Street, Onehunga, Auckland"
4160,Wakatu,Tokoroa,144,Sydney Street,"144 Russell Street, Westport"
4161,Waldronville,Te Aroha,32,Fairlea Road,"32 Wyndham Street, Carterton"
4162,Wallaceville,Gore,75A,Taupo Bay Road,"75A Benson Road, Remuera, Auckland"
4163,Waltham,Auckland,31,Warspite Avenue,"31 Lyndhurst Crescent, Aranui, Christchurch"
4164,Wanganui Airport,Morrinsville,10,Sovereign Street,"10 Ihaka Street, Hokowhitu, Palmerston North"
4165,Wanganui East,Auckland,72,Korere-Tophouse Road,"72 Paterson Street, Grasmere, Invercargill"
4166,Washdyke,Kaiapoi,8,Seddon Street,"8 Ihakara Street, Paraparaumu"
4171,Washington Valley,Huntly,1641,Humphries Road,"1641 Whangarei Heads Road, Whangarei Heads"
4172,Waterloo,Christchurch,67,Burnham Street,"67 Alexander Avenue, Torbay, Auckland"
4174,Waterview,Rotorua,251,Brockville Road,"251 Ruatoki Valley Road, Ruatoki"
4175,Watlington,Upper Hutt,16,Dalethorpe Road,"16 Beverley Street, St Albans, Christchurch"
4178,Wattle Downs,Temuka,51,Alma-Maheno Road,"51 Glendining Avenue, North East Valley, Dunedin"
4179,Waverley,Red Beach,73,Revell Court,"73 Kapukapu Road, Hamurana"
4181,Welbourn,Temuka,38,Oliphant Road,"38 Lister Crescent, Maraenui, Napier"
4182,Wellington Central,Pauanui,18,Tuam Street,"18 Oldham Street, Orepuki"
4183,West End,Masterton,20,Turakina Valley Road,"20 Tarata Grove, Lansdowne, Masterton"
4184,West Harbour,Wellington,1880,Omori Road,"1880 Main North Road, Sefton"
4186,West Invercargill,Porirua,4,Rotokohu Road,"4 Browne Street, Kawerau"
4188,Westbrook,Wellington,24A,Baird Street,"24A Anzac Road, Morningside, Whangarei"
4189,Western Heights,Auckland,48A,Tolben Place,"48A Hathaway Avenue, Karori, Wellington"
4191,Western Springs,Auckland,10,Princes Street,"10 Hillside Terrace, Witherlea, Blenheim"
4193,Westmere,Auckland,321,Kimptonfields Court,"321 Maungarangi Road, Paengaroa"
4195,Westmorland,Auckland,1,Leicester Street,"1 Louisa Grove, Waitangirua, Porirua"
4196,Weston,Dunedin,22,Beachville Road,"22 Pearsons Avenue, Claudelands, Hamilton"
4197,Westown,Lower Hutt,3,Corokia Place,"3 Taipari Road, Te Atatu Peninsula, Auckland"
4198,Westshore,Hawera,693,Sandersons Road,"693 Carrington Road, Hurworth"
4200,Weymouth,Auckland,985,Fenton Street,"985 Fergusson Drive, Ebdentown, Upper Hutt"
4202,Whalers Gate,Ashburton,57,Park Road,"57 Jack Boyd Drive, Mangawhai Heads, Mangawhai"
4203,Wharewaka,Auckland,29,Spencer Road,"29 Kowhai Place, Tokoroa"
4210,Whataupoko,Whakatane,1/104,Lake Ferry Road,"1/104 Barrington Street, Somerfield, Christchurch"
4240,Whau Valley,Blenheim,47A,Huihuitaha Road,"47A Huntington Drive, Huntington Park, Auckland"
4241,Whenuapai,Timaru,202/2A,Diamond Street,"202/2A Raurenga Avenue, Royal Oak, Auckland"
4242,Whitby,Wellington,68,Hall Crescent,"68 Access Road, Kumeu"
4243,Whitiora,Levin,81,Cable Bay Block Road,"81 Parry Crescent, Lake Hawea"
4244,Wigram,Auckland,27,Piriti Drive,"27 Nazareth Avenue, Middleton, Christchurch"
4245,Wilton,Auckland,155,Rodeo Drive,"155 Rosebank Road, Avondale, Auckland"
4271,Windsor,Auckland,5069,Cherry Drive,"5069 Roxburgh-Ettrick Road, Ettrick"
4272,Windsor Park,Pukekohe,232,Manuka Bay Road,"232 Wainui South Road, Whakamarama"
4273,Wiri,Gisborne,34A,St Albans Avenue,"34A Beckenham Avenue, Royal Oak, Auckland"
4274,Witherlea,Alexandra,5,State Highway 2,"5 Kilgour Road, Greymouth"
4275,Woburn,Taupo,33,Cobham Lane,"33 Iversen Terrace, Waltham, Christchurch"
4276,Woodbourne,Auckland,125,Thames Coast Road,"125 Fraser Street, Te Awamutu"
4277,Woodhaugh,Warkworth,20,Forbes Place,"20 Stonehaven Crescent, West End, Palmerston North"
4278,Woodhill,Hamilton,159,Pukearuhe Road,"159 Porter Road, Paparoa"
4279,Woodridge,Tauranga,301,Forth Street,"301 Hape Road, Thames"
4281,Woolston,Masterton,48,Masonic Place,"48 Morvern Crescent, Tokoroa"
4282,Woolwich,Timaru,30,Growers Lane,"30 Meldrum Street, Winton"
4283,Yaldhurst,Gisborne,24,Rielly Place,"24 Lantana Road, Green Bay, Auckland"
4284,Yelverton,Auckland,Jan 37,Randolph Street,"1/37 Aurora Terrace, Hillcrest, Hamilton"
4285,York Bay,Wellington,77,Chastudon Place,"77 Liardet Street, New Plymouth"
4286,Abbey Caves,Dargaville,29,Barraud Street,"29 Rahui Road, Greenhithe, Auckland"
4287,Abbotsford,Wellington,7,Onepu Spring Road,"7 Rawhiti Street, Diamond Harbour"
4288,Acacia Bay,Christchurch,4,The Gardens Drive,"4 Hamilton Place, Glenfield, Auckland"
4291,Addington,Auckland,102,Partridge Road,"102 Queens Drive, Lyall Bay, Wellington"
4292,Ahuriri,Napier,23,Twickenham Close,"23 Tarata Street, Saint Johns Hill, Whanganui"
4293,Akina,Dunedin,159,York Avenue,"159 Harold Holt Avenue, Pirimai, Napier"
4294,Albany,Auckland,32,Meadowbank Road,"32 South Road, Manaia"
4295,Albany Heights,Alexandra,4,Everton Road,"4 Wakanoi Place, Bowentown, Waihi Beach"
4310,Albert Town,Auckland,1262,Siberia Road,"1262 New North Road, Avondale, Auckland"
4312,Alfriston,Auckland,3,Glendale Crescent,"3 Marua Road, Ellerslie, Auckland"
4314,Algies Bay,Auckland,57,Mayfield Klondyke Road,"57 Livesys Road, Saint Andrews"
4320,Alicetown,Auckland,33,Ormandy Road,"33 St Jude Street, Avondale, Auckland"
4322,Allenton,Lower Hutt,29A,Layard Street,"29A Fairs Road, Milson, Palmerston North"
4330,Andersons Bay,Auckland,104,Te Whiti Road,"104 Eden Street, Oamaru"
4332,Annesbrook,Papamoa,25A,Seymour Street,"25A Manly Park Avenue, Manly, Whangaparaoa"
4335,Aotea,Nelson,54,Rangitoto Road,"54 Durham Crescent, Fairfield, Lower Hutt"
4340,Appleby,Auckland,14,Aotaki Street,"14 Cotterell Place, St Arnaud"
4341,Aramoho,Auckland,45,Swansea Street,"45 Burns Road, Hospital Hill, Napier"
4342,Aranui,Levin,147,Tamaki Drive,"147 Hurndall Street West, Maungaturoto"
4343,Arapuni,Foxton,61,Hedges Street,"61 Larch Crescent, Alexandra"
4344,Arkles Bay,Putaruru,405,Koromiko Street,"405 Lyndon Road West, Hastings"
4345,Army Bay,New Plymouth,3,Thornlea Grove,"3 Realm Place, Massey, Auckland"
4346,Aro Valley,Hastings,16,Covil Avenue,"16 Ailsa Street, Te Kuiti"
4347,Ascot,Rotorua,13,Mariposa Avenue,"13 Fookes Street, Midhirst"
4348,Ascot Park,Turangi,15,Taranga Road,"15 Amy Kate Street, Tikipunga, Whangarei"
4349,Atawhai,Auckland,8,Spinella Drive,"8 Carrington Street, St Albans, Christchurch"
4350,Auckland Airport,Ashhurst,7296,Royal Terrace,"7296 State Highway 35, Te Kaha"
4351,Auckland Central,Auckland,2B,Ashbury Avenue,"2B Suffolk Place, Cannons Creek, Porirua"
4352,Avalon,Napier,91A,Mangakahia Road,"91A Wainui Street, Riccarton, Christchurch"
4353,Avenal,New Plymouth,7,Marama Avenue South,"7 Mary Street, Mangapapa, Gisborne"
4360,Avenues,Auckland,8,Normandy Street,"8 Jerram Street, Mount Albert, Auckland"
4371,Avondale,Taupo,44,Hill Road,"44 Stillwater Crescent, Stillwater"
4372,Avonhead,Whanganui,33,Yarrow Street,"33 Scarborough Road, Scarborough, Christchurch"
4373,Avonside,Christchurch,19,Pohutukawa Avenue,"19 Oxford Terrace, Devonport, Auckland"
4374,Awapuni,Palmerston North,17,Aberdeen Road,"17 The Avenue, Paraparaumu Beach, Paraparaumu"
4375,Awatoto,Papakura,63,Nimstedt Avenue,"63 Surrey Road, Springvale, Whanganui"
4376,Bader,Mount Maunganui,417,Hillsborough Road,"417 Manchester Street, Christchurch Central, Christchurch"
4377,Balaclava,Auckland,35C,Puniwhakau Road,"35C Upton Street, Wanaka"
4378,Bastia Hill,Inglewood,37,West End Road,"37 Kelvin Road, Papakura"
4379,Bay View,Upper Hutt,20,Shands Road,"20 Morrow Terrace, Pukekohe"
4381,Bayswater,Palmerston North,32C,Shetland Street,"32C Lakeside Drive, Orewa"
4382,Bayview,Christchurch,3,Faldo Drive,"3 Calypso Place, Spencerville, Christchurch"
4383,Beach Haven,Auckland,27,Brighton Road,"27 Taraire Crescent, Otangarei, Whangarei"
4386,Beachlands,Auckland,157,St Aidans Way,"157 Sandymount Road, Sandymount"
4387,Beachville,Dunedin,4,Green Road,"4 Gadd Place, Whakatane"
4388,Beckenham,Auckland,01 Aug,Waikawa Road,"1/8 Lingfield Street, Glenfield, Auckland"
4389,Beerescourt,Christchurch,2,James Road,"2 William Blofield Avenue, Mount Roskill, Auckland"
4390,Belfast,Palmerston North,5A,King Street,"5A Sampson Lane, Northcote, Auckland"
4391,Bell Block,Dunedin,49,Cairn Road,"49 James Evans Drive, Northcote, Auckland"
4392,Belleknowes,Auckland,51,Rimu Lane,"51 Roberta Drive, Somerfield, Christchurch"
4393,Belmont,Christchurch,11,Hukanui Road,"11 Fantail Lane, Takamatua"
4394,Berhampore,Auckland,30,Polley Crescent,"30 Scoular Street, Maryhill, Dunedin"
4395,Bexley,Tauranga,3,Tauranga Place,"3 Truby King Street, Merrilands, New Plymouth"
4396,Birchville,Feilding,20,Blackhead Road,"20 Jacanas Place, Unsworth Heights, Auckland"
4397,Birkdale,Auckland,651,Ocean Breeze Drive,"651 Mt Brown Road, Broomfield"
4398,Birkenhead,Omokoroa,29,Kaiapo Road,"29 Manurere Avenue, Takapuna, Auckland"
4399,Bishopdale,Inglewood,1/39B,Ihaka Street,"1/39B Harrington Road, Henderson, Auckland"
4410,Blagdon,Taupo,50,Landsborough Drive,"50 Little Waihi Road, Maketu"
4412,Blaketown,Lower Hutt,23A,Queen Street,"23A Dyers Pass Road, Cashmere, Christchurch"
4414,Blockhouse Bay,Christchurch,135,Robin Lane,"135 Ashmore Street, Halfway Bush, Dunedin"
4440,Bluff Hill,Alexandra,285,Seadown Crescent,"285 East Takaka Road, East Takaka"
4441,Botany Downs,Edendale,1/18A,Papanui Road,"1/18A Fenwick Avenue, Milford, Auckland"
4442,Bottle Lake,Hamilton,21,Peel Place,"21 Marewa Street, Kew, Dunedin"
4443,Boulcott,Auckland,202,Doris Street,"202 Coast Road, Wainuiomata, Lower Hutt"
4444,Bradford,Dunedin,57,Greenpark Street,"57 Broadway, Matamata"
4445,Breaker Bay,Tauranga,204A,Awhitu Road,"204A Cook Drive, Whitianga"
4446,Bridge Hill,Palmerston North,18/81,Ebony Place,"18/81 Shakespeare Road, Milford, Auckland"
4448,Brighton,Tauranga,92,Walter Strevens Drive,"92 Notown Road, Arnold Valley"
4470,Britannia Heights,Palmerston North,10,Westpark Drive,"10 Northcroft Street, Takapuna, Auckland"
4471,Broad Bay,Christchurch,41B,Kentwood Drive,"41B Ranfurly Street, Hokowhitu, Palmerston North"
4473,Broadmeadows,Lower Hutt,39,Wall Place,"39 Vermont Street, Ponsonby, Auckland"
4474,Brockville,Auckland,133,New North Road,"133 Lowes Road, Rolleston"
4475,Bromley,Auckland,02 Dec,Ngaio Drive,"2/12 Dundas Street, The Wood, Nelson"
4476,Brooklands,Auckland,2C,Totara Road,"2C Larsen Street, Otara, Auckland"
4477,Brooklyn,Blenheim,25,Chalmers Street,"25 Millthorpe Crescent, Pukete, Hamilton"
4478,Broomfield,Kaitaia,64,Main South Road,"64 Utopia Park Heights, Welcome Bay, Tauranga"
4479,Brown Owl,Levin,16,Bellevue Road,"16 Saxon Street, Motueka"
4481,Browns Bay,Whanganui,10,Hastwell Street,"10 Four Mile Creek Road, Te Houka"
4500,Bryndwr,Auckland,163B,Upper Queen Street,"163B Knighton Road, Hillcrest, Hamilton"
4501,Bucklands Beach,Rotorua,96,Alamein Avenue,"96 Jumna Road, Maungaturoto"
4510,Burleigh,Wellington,19,Margate Avenue,"19 Elizabeth Avenue, Rakaia"
4520,Burnham Camp,Hamilton,9,Ida Road,"9 Benmohr Place, Tokoroa"
4540,Burnside,Porirua,15,Margaret Street,"15 Wilson Road, Kakaramea"
4541,Burswood,Christchurch,93,Hunter Street,"93 Russell Street, Dunedin Central, Dunedin"
4542,Burwood,Ohope,70,Margarita Rise,"70 Crosby Road, Chartwell, Hamilton"
4543,Calton Hill,Tairua,375,Kahika Road,"375 Huntly Road, Woodside"
4544,Camberley,Auckland,8,Park Road,"8 Cannon Drive, Kerikeri"
4545,Camborne,Mosgiel,73,Castle Street,"73 Devon Street, Glenholme, Rotorua"
4547,Camerons,Rotorua,27,Kiwi Lane,"27 Colesbury Street, Bishopdale, Christchurch"
4548,Campbells Bay,Richmond,5,Kilmarnock Street,"5 Fitzwilliam Terrace, Tawa, Wellington"
4549,Cannons Creek,Wellington,12,Wakefield-Kohatu Highway,"12 Boundary Road, Claudelands, Hamilton"
4571,Careys Bay,Ruakaka,35,Hawthorn Mews,"35 Huia Street, Pahiatua"
4572,Carters Beach,Whangamata,149A,Anthony Place,"149A Dixon Street, Te Aro, Wellington"
4573,Casebrook,Auckland,27,Malfroy Road,"27 Rimu Street, Inglewood"
4574,Cashmere,Auckland,58,Brighton Terrace,"58 Botanical Road, Takaro, Palmerston North"
4575,Cass Bay,Auckland,01 Mar,Rangatira Road,"1/3 Ian Place, Glendene, Auckland"
4576,Castlecliff,Auckland,374,Adel Place,"374 Pleasant Valley Road, Geraldine Downs"
4577,Castor Bay,Raglan,3,Stout Street,"3 Sioux Avenue, Wigram, Christchurch"
4578,Caversham,Tauranga,8,Scarborough Road,"8 Marsden Place, Awapuni, Palmerston North"
4581,Chartwell,Greymouth,3,Minginui Road,"3 Edinburgh Street, Auckland Central, Auckland"
4582,Chatswood,Auckland,4,Chatham Avenue,"4 Ngapaki Street, Waikanae Beach, Waikanae"
4584,Chedworth,Auckland,51,Carrington Street,"51 Scobie Road, Waverley, Dunedin"
4585,Christchurch Airport,Auckland,53,Rue Lavaud,"53 Awaroa Road, Helensville"
4586,Christchurch Central,Auckland,22,Seaview Road,"22 Victoria Road, Mount Maunganui"
4587,Churton Park,Auckland,70-74,Wainuiomata Road,"70-74 Chambers Street, Tokoroa"
4588,Clareville,Christchurch,14,Mako Street,"14 Oban Road, Westmere, Auckland"
4591,Claudelands,Tauranga,44,Coast Road,"44 Bayside Drive, Coopers Beach"
4592,Clendon Park,Christchurch,565,Taitokerau Way,"565 Cranford Street, Papanui, Christchurch"
4597,Clifton,Hamilton,652,Colombo Street,"652 Tremaine Avenue, Palmerston North"
4598,Clouston Park,Invercargill,20,St Leonards Road,"20 Martin Street, Palmerston North"
4610,Clover Park,Auckland,9,Harbour Road,"9 Gretton Way, Lower Shotover"
4612,Cloverlea,Christchurch,551,Bougainville Street,"551 Awahou Road, Ruatoki"
4614,Clyde Hill,Auckland,34,Victoria Road,"34 Esk Street, Parkvale, Tauranga"
4616,Cobden,Taipa,72B,Stanley Street,"72B James Road, Te Puna"
4625,Cockle Bay,Opotiki,62,Princes Street,"62 Juniper Road, Sunnynook, Auckland"
4632,College Estate,Kawerau,41A,Oakleigh Crescent,"41A Brownville Crescent, Maori Hill, Dunedin"
4640,Company Bay,Palmerston North,2/1125,Bretton Lane,"2/1125 New North Road, Mount Albert, Auckland"
4641,Concord,Auckland,99A,Dunstall Place,"99A Pukekauri Road, Waikino, Waihi"
4642,Conifer Grove,Invercargill,22,Waimea Street,"22 Driver Street, Long Beach"
4645,Cornwallis,Tauranga,145,Fitzroy Place,"145 Keri Vista Rise, Papakura"
4646,Corstorphine,Auckland,21,Karaka Road,"21 Tolcarne Avenue, Maori Hill, Dunedin"
4660,Cracroft,Mosgiel,41,Glenharrow Avenue,"41 Hotuhotu Street, Tauriko, Tauranga"
4671,Crofton Downs,Te Awamutu,28A,Chippendale Crescent,"28A Smithfield Road, Tawhero, Whanganui"
4672,Dallington,Auckland,9,Kendal Avenue,"9 Matai Road, Stanmore Bay, Whangaparaoa"
4673,Dalmore,Orewa,19,Waiau Street,"19 Alderson Road, Fairview Downs, Hamilton"
4674,Dannemora,Auckland,2,Cheviot Road,"2 Settler Lane, Ohaupo"
4675,Days Bay,Oamaru,13,Pomona Street,"13 Strathmore Avenue, Strathmore Park, Wellington"
4678,Deanwell,Christchurch,Feb 16,Tyndall Street,"2/16 Lancaster Road, Beach Haven, Auckland"
4679,Devonport,Paraparaumu,509/72,Stafford Street,"509/72 Nelson Street, Auckland Central, Auckland"
4681,Dinsdale,Dunedin,21,Arawata Terrace,"21 Sidwell Road, Wainui"
4682,Dunedin Central,Auckland,4,McEntee Road,"4 Lagoon View, Gulf Harbour, Whangaparaoa"
4684,Dunollie,Picton,1,Fairview Road,"1 Timbermill Road, Whenuapai, Auckland"
4685,Durie Hill,Hastings,479B,Beaumont Drive,"479B Windermere Road, Eiffelton"
4691,East Gore,Dunedin,Jan 23,Newbridge Place,"1/23 Howe Street, Howick, Auckland"
4694,East Taieri,Auckland,45,Cotswold Place,"45 Strasbourge Street, Martinborough"
4696,East Tamaki,Christchurch,41,Cairns Crescent,"41 Carlton Terrace, Westown, New Plymouth"
4702,East Tamaki Heights,Dunedin,115,West Tamaki Road,"115 Bolt Road, Annesbrook, Nelson"
4710,Eastbourne,Hawera,16,Kanohi Terrace,"16 Sudbury Terrace, Parnell, Auckland"
4720,Eastern Beach,Dunedin,7,Barbadoes Street,"7 Lewis Road, Pakuranga, Auckland"
4730,Ebdentown,Opotiki,142,Queen Street,"142 Top Mill Road, Raurimu"
4740,Eden Terrace,Mosgiel,64,Rawhiti Road,"64 Kohe Street, Parahaki, Whangarei"
4741,Edgeware,Nelson,1,McLeod Road,"1 Scenic Drive, Titirangi, Auckland"
4742,Elderslea,Whangarei,22B,Symonds Street,"22B Duke Street, Cambridge"
4744,Elgin,Auckland,179,Palmer Street,"179 Egerton Road, Winton"
4745,Ellerslie,Riverton,Mar 20,Hillary Street,"3/20 Dominion Street, Takapuna, Auckland"
4746,Elsdon,Napier,23,High Street,"23 Pentecost Road, Rangiora"
4771,Enderley,Dunedin,4,Clifden Highway,"4 Waterview Terrace, Omokoroa"
4774,Enner Glynn,Pauanui,1,Crown Range Road,"1 Kenmure Place, Bethlehem, Tauranga"
4775,Epsom,Whanganui,11,Pauanui Boulevard,"11 Taupiri Crescent, Titahi Bay, Porirua"
4777,Epuni,Timaru,Jan 82,Sheehan Street,"1/82 Stanniland Street, Sunnyhills, Auckland"
4779,Fairfield,Dunedin,20,New Road,"20 Willow Camp Road, Takanini"
4780,Fairview Downs,Tuakau,142,Stone Street,"142 South Road, Caversham, Dunedin"
4781,Fairview Heights,Gisborne,14,Victoria Road South,"14 Read Street, Levin"
4782,Farm Cove,Auckland,125,England Street,"125 Flagstaff Station Road, Athol"
4783,Favona,Auckland,44,Forrester Drive,"44 Wright Road, Point Chevalier, Auckland"
4784,Fendalton,Lower Hutt,Jul 36,Kings Road,"7/36 Leighton Avenue, Waiwhetu, Lower Hutt"
4785,Ferndale,Turangi,85,Twilight Bay,"85 Thompson Road, Twyford"
4786,Fernhill,Whanganui,928,Stratton Street,"928 Maniatutu Road, Pongakawa"
4787,Ferrymead,Auckland,20,Great North Road,"20 Silverton Road, Waihi"
4788,Fitzherbert,Waiheke Island,20,Zeehan Place,"20 Haughey Avenue, Three Kings, Auckland"
4789,Fitzroy,Auckland,28,Miners Road,"28 Webb Street, St Albans, Christchurch"
4791,Flagstaff,Napier,61,Pitfure Road,"61 Sommerville Road, Mauku"
4792,Flat Bush,Auckland,10,Sinclair Terrace,"10 Old Kiripaka Road, Kiripaka"
4793,Flaxmere,Te Awamutu,248,Laurie Avenue,"248 Parklands Road, Rotoorangi"
4794,Forbury,Porirua,15,Mountain Road,"15 Sarsfield Street, Southbridge"
4795,Forest Lake,Auckland,84,Muir Avenue,"84 Torkar Road, Clarks Beach"
4796,Forrest Hill,Wellington,526,Larisa Grove,"526 Sandspit Road, Warkworth"
4797,Foxton Beach,Gisborne,28A,Wilma Road,"28A Seaview Lane, Wainui"
4810,Frankleigh Park,Papamoa,22,Tims Crescent,"22 Rydal Street, Hoon Hay, Christchurch"
4814,Frankton,Whangarei,11,Wallnutt Avenue,"11 Mangawhero Road, Matamata"
4815,Freemans Bay,Auckland,04 Aug,Esk Street,"4/8 Morris Spence Avenue, Onekawa, Napier"
4816,Frimley,Napier,120,Avon Street,"120 Paraite Road, Paraite"
4817,Georgetown,Dunedin,149,Mazengarb Road,"149 Jackson Street, Petone, Lower Hutt"
4818,Gladstone,Christchurch,11,Flanders Avenue,"11 Pateke Way, Paraparaumu Beach, Paraparaumu"
4820,Glen Avon,Ohaupo,217,Rosalind Street,"217 Great North Road, Otamatea, Whanganui"
4821,Glen Eden,Hamilton,46B,Captain Scott Road,"46B Warspite Avenue, Cannons Creek, Porirua"
4822,Glen Innes,Hamilton,17,Nanleen Rise,"17 Cobham Road, Kerikeri"
4825,Glendene,Hamilton,6B,Haumia Street,"6B Carisbrooke Street, Katikati"
4826,Glendowie,Auckland,805,David Street,"805 Oeo Road, Auroa"
4847,Glenfield,Tauranga,18,King Edward Parade,"18 Tregarth Street, Saint Johns Hill, Whanganui"
4848,Glengarry,Auckland,76,Crest Road,"76 Queen Street, Upper Hutt"
4849,Gleniti,Napier,2,Little Oaks Drive,"2 James Street, Hamilton East, Hamilton"
4860,Glenleith,Whangarei,Feb 71,Jeffery Street,"2/71 Anich Road, Massey, Auckland"
4861,Glenross,Auckland,39A,Booralee Avenue,"39A Menin Road, Onekawa, Napier"
4862,Glenside,Auckland,56A,Rangiwaho Road,"56A Totara Street, Tawhero, Whanganui"
4863,Glenview,Auckland,19C,Estuary Road,"19C Killarney Street, Takapuna, Auckland"
4864,Glenwood,Taupo,58,Belfast Place,"58 Clyma Street, Elderslea, Upper Hutt"
4865,Golflands,Auckland,37,Prospect Terrace,"37 Riverside Drive, Waiuku"
4866,Gonville,Auckland,41,Main Street,"41 Etherton Drive, Weymouth, Auckland"
4867,Goodwood Heights,Hamilton,54-64,Aberdeen Road,"54-64 Leonard Road, Mount Wellington, Auckland"
4884,Gracefield,Upper Hutt,7A,Oriental Street,"7A Suter Street, Stoke, Nelson"
4891,Grafton,Christchurch,68,Edinburgh Street,"68 Matlock Street, Woolston, Christchurch"
4893,Grandview Heights,Christchurch,6,Darroch Street,"6 Matipo Place, Woodhill, Whangarei"
4894,Grasmere,Auckland,76,Golden Courie Close,"76 Gilbert Road, Otara, Auckland"
4900,Green Bay,Upper Hutt,22,Vista Terrace,"22 Montego Close, Shirley, Christchurch"
4910,Green Island,Auckland,283,Bouverie Street,"283 Muritai Road, Eastbourne, Lower Hutt"
4920,Greenhithe,Auckland,88,Torea Lane,"88 Lagoon Way, West Harbour, Auckland"
4930,Greenlane,Whakatane,442,Vinograd Drive,"442 Tararua Road, Levin"
4940,Greenmeadows,Tauranga,304,State Highway 26,"304 Waingake Road, Manutuke"
4941,Grenada North,Blenheim,12,Coronation Road,"12 Lionel Place, Mapua"
4942,Grenada Village,Lower Hutt,23,Stout Street,"23 Ferndown Close, Brookfield, Tauranga"
4943,Grey Lynn,Auckland,10,Peter Buck Road,"10 Steed Avenue, Te Hapara, Gisborne"
4944,Grovetown,Rolleston,94,Capriana Drive,"94 Weymouth Road, Manurewa, Auckland"
4945,Gulf Harbour,Auckland,8,Hewitts Road,"8 Carex Way, Long Bay, Auckland"
4970,Half Moon Bay,Waihi Beach,44,Lewis Street,"44 Te Horo Beach Road, Te Horo"
4971,Halfway Bush,Whakatane,48/3,Nelson Street,"48/3 Burton Street, Grafton, Auckland"
4972,Halswell,Mount Maunganui,14,Lakemba Mews,"14 Queen Street, Papakura"
4973,Hamilton Central,Paraparaumu,25,Thompson Street,"25 Eversleigh Road, Belmont, Auckland"
4974,Hamilton East,Marton,257,Kakaramea Road,"257 Rosetta Road, Raumati Beach, Paraparaumu"
4975,Hamilton Lake,Lower Hutt,161B,Cornwall Road,"161B Jondor Road, Matamata"
4976,Hampstead,Wellington,53C,North Shore Road,"53C River Plate Road, Ngakuru"
4977,Harbour View,Mount Maunganui,33,Custom Street,"33 Peria Road, Matamata"
4978,Harewood,Waiuku,9,Carruth Road,"9 Caledonian Place, Cromwell"
4979,Hargest,Auckland,395,Ngatuku Place,"395 Springbank Road, Otaio"
4981,Harrowfield,Tauranga,107,Piko Street,"107 Barbarich Drive, Stonefields, Auckland"
4982,Hataitai,Dunedin,8,Norwich Place,"8 Lancewood Court, Matamata"
4983,Hatfields Beach,Auckland,18A,Whitmore Road,"18A Rosendale Avenue, Spotswood, New Plymouth"
4984,Hauraki,Feilding,40,O'Connell Road,"40 Tamure Place, Ruakaka"
4985,Hawthorndale,Pirongia,59,Fergusson Drive,"59 St Heliers Crescent, Aranui, Christchurch"
4986,Haywards,Porirua,6,Poplar Grove,"6 Walker Place, Whanganui East, Whanganui"
4987,Heathcote Valley,Dunedin,206,Hynds Road,"206 Acacia Bay Road, Nukuhau, Taupo"
4988,Hei Hei,Taupiri,1486,Marellen Drive,"1486 Bluff Highway, Greenhills"
4989,Heidelberg,Whakatane,3,St Andrews Square,"3 Sussex Street, Masterton"
4990,Helensburgh,Stewart Island,61A,Harbottle Road,"61A Manawatu Street, Hokowhitu, Palmerston North"
4991,Henderson,Christchurch,5,Lincoln Road,"5 Homestead Lane, Cambridge"
4992,Henderson Valley,Motueka,64,Tadmor-Bushend Road,"64 Beach Road, Katikati"
4993,Herald Island,Marlborough Sounds,170,Marama Crescent,"170 Verbena Road, Birkdale, Auckland"
4994,Heretaunga,Auckland,133B,New North Road,"133B Ellicott Road, Nawton, Hamilton"
4995,Herne Bay,Auckland,12,Barrie Crescent,"12 Clifford Street, Kaikohe"
4996,Highbury,Tauranga,18,Cameron Street,"18 Utting Street, Birkdale, Auckland"
4997,Highcliff,Auckland,776,Wharf Road,"776 Childers Road, Elgin, Gisborne"
4998,Highfield,Porirua,113,Lear Street,"113 Bayside Drive, Browns Bay, Auckland"
4999,Highland Park,Ngaruawahia,35B,Sapphire Place,"35B Douglas Street, Whakatane"
5010,Highlands Park,Christchurch,26,Old Wairoa Road,"26 Chartwell Close, Rangiora"
5011,Hillcrest,Lower Hutt,183,Oreti Crescent,"183 Gloucester Street, Taradale, Napier"
5012,Hillmorton,Christchurch,2,Finch Street,"2 Horizon Way, West Harbour, Auckland"
5013,Hillsborough,Auckland,62,Matahi Valley Road,"62 Douglas McLean Avenue, Marewa, Napier"
5014,Hillside,Auckland,461,Aroha Street,"461 Arapaepae South Road, Ohau"
5016,Hilltop,Dannevirke,36,Maranui Street,"36 Carroll Street, Waharoa"
5018,Hobsonville,Whangarei,33,Mile Road,"33 Redwood Street, Blenheim"
5019,Hokowhitu,Levin,157,Tiwai Road,"157 Cranford Street, St Albans, Christchurch"
5022,Holmes Hill,Hamilton,5,Barnes Road,"5 Onslow Street, Dargaville"
5024,Homebush,Wellington,9,Waimairi Road,"9 Field Place, Richmond"
5026,Hoon Hay,Upper Hutt,47,State Highway 12,"47 Morgan Crescent, Levin"
5028,Hope,Tauranga,108,Peace Street,"108 Memorial Drive, Parahaki, Whangarei"
5032,Horahora,Hastings,67,New North Road,"67 One Tree Point Road, One Tree Point, Whangarei"
5034,Hornby,Te Awamutu,619,Maitland Street,"619 Waitarere Beach Road, Waitarere Beach, Levin"
5036,Hornby South,Auckland,65,Paki Street,"65 Otaki Street, Kaiapoi"
5040,Horokiwi,Whanganui,111,The Drive,"111 Otumoetai Road, Brookfield, Tauranga"
5041,Hospital Hill,Morrinsville,54A,Samuel Cassidy Avenue,"54A Ruawai Road, Mount Wellington, Auckland"
5042,Houghton Bay,Masterton,34/46,Airport Road,"34/46 Peachgrove Road, Hamilton East, Hamilton"
5043,Howick,Lower Hutt,61,Kumara-Inchbonnie Road,"61 Levers Road, Matua, Tauranga"
5044,Huapai,Auckland,17,Whangaparaoa Road,"17 Oakway Drive, Schnapper Rock, Auckland"
5045,Huia,Kaiapoi,250,Briggs Road,"250 Mount Albert Road, Sandringham, Auckland"
5046,Huntington,Wellington,57B,Beach Road,"57B Wolverton Street, Avondale, Auckland"
5047,Huntington Park,Twizel,198,Porotaka Place,"198 Wellington Street, Pukekohe"
5048,Huntsbury,Auckland,426B,Kemp Road,"426B Oceanbeach Road, Mount Maunganui"
5049,Hurdon,Rotorua,32,Cambridge Street South,"32 Wolter Crescent, Cromwell"
5050,Hutt Central,Otorohanga,144,Boyne Street,"144 Lincoln Road, Henderson, Auckland"
5140,Ilam,Waikanae,58,Vancouver Drive,"58 Masons Road, East Tamaki Heights, Auckland"
5141,Inner Kaiti,Blenheim,487,Bridge Street,"487 Trevors Road, Carew"
5142,Island Bay,Palmerston North,15,Parade Court,"15 Kahu Street, Mangakino"
5143,Islington,Twizel,14,Joy Street,"14 Pandora Street, North New Brighton, Christchurch"
5240,Jervoistown,Raetihi,35A,Beach Road,"35A Clyde Street, Roseneath, Dunedin"
5242,Johnsonville,Whangarei,300,Maeroa Road,"300 Maddisons Road, Rolleston"
5243,Kaiata,Levin,24B,Pelargonium Terrace,"24B McKerrow Place, Sunshine Bay, Queenstown"
5245,Kaikorai,Waharoa,351B,Bryant Street,"351B Thames Street, Morrinsville"
5247,Kainga,Christchurch,6452,Winchester Street,"6452 Route 52, Herbertville"
5249,Kaiti,Paekakariki,295,Parkhouse Drive,"295 Welcome Bay Road, Welcome Bay, Tauranga"
5250,Kaiwharawhara,Lower Hutt,5A,Evans Bay Parade,"5A Whitehouse Road, Titahi Bay, Porirua"
5252,Kaniere,Masterton,734,Ngamotu Road,"734 Fraser Road, Normanby, Hawera"
5254,Karaka,Lincoln,34,Rangitopuni Road,"34 Bolton Avenue, Spreydon, Christchurch"
5255,Karaka Bays,Christchurch,544,Outhwaite Lane,"544 South Titirangi Road, Titirangi, Auckland"
5258,Karori,Mount Maunganui,81,Claudius Street,"81 McMurdo Street, Tinwald, Ashburton"
5371,Karoro,Tuakau,56,Seddon Street,"56 Murray Street, Greymouth"
5372,Kawarau Falls,Upper Hutt,72,Beth Street,"72 Carlton Crescent, Maraetai, Auckland"
5373,Kelburn,Masterton,9,Titirangi Road,"9 Rea Street, Lawrence"
5381,Kelson,Auckland,38,The Rosebowl,"38 Rintoul Street, Newtown, Wellington"
5391,Kelston,Christchurch,6,Manaia Street,"6 Rowe Street, Onehunga, Auckland"
5510,Kelvin Grove,Christchurch,49,Foster Street,"49 Amyes Road, Hornby, Christchurch"
5512,Kelvin Heights,Tauranga,553C,Remuera Road,"553C East Coast Road, Browns Bay, Auckland"
5540,Kenmure,Auckland,30A,Raleigh Street,"30A Landon Avenue, Mangere East, Auckland"
5541,Kensington,Hamilton,10,Alison Street,"10 Baltimore Crescent, Totara Park, Upper Hutt"
5542,Kew,Roxburgh,74D,Cressy Street,"74D Goulstone Road, Whakatane"
5543,Khandallah,Papamoa,36,Lewis Street,"36 Lithgow Drive, Otamatea, Whanganui"
5544,Kihikihi,Christchurch,14,Record Street,"14 Williamson Street, Cambridge"
5570,Kilbirnie,Auckland,12,Kauri Grove,"12 Stamford Park Road, Mount Roskill, Auckland"
5571,Kingsland,Auckland,536/21,South Road,"536/21 Viaduct Harbour Avenue, Auckland Central, Auckland"
5572,Kingsley Heights,Nelson,4,Ladies Mile,"4 Hangar Access Road, Auckland Airport, Auckland"
5573,Kingston,Auckland,40,Ash Street,"40 Adamson Crescent, Glengarry, Invercargill"
5574,Kingswell,Auckland,1,Browns Road,"1 Bestall Street, Maraenui, Napier"
5575,Kinmont Park,Hamilton,405B,Carnation Court,"405B Roscommon Road, Clendon Park, Auckland"
5581,Kohimarama,Auckland,1/331,Kea Street,"1/331 Kohimarama Road, St Heliers, Auckland"
5710,Korokoro,Hawera,540,Covent Drive,"540 Ohiti Road, Crownthorpe"
5711,Kuripuni,Kaiapoi,25,Hermes Place,"25 Radiata Lane, Chatswood, Auckland"
5712,Laingholm,Taupo,49,Webb Place,"49 Heretaunga Street, Tikipunga, Whangarei"
5713,Lake Hayes Estate,Rangiora,5,Kirikiri Road,"5 Duke Street, Levin"
5740,Lansdowne,Christchurch,571,Gilchrist Street,"571 Hazelmere Crescent, Te Awamutu"
5741,Lawyers Head,Auckland,1655,St Andrews Square,"1655 Otorohanga Road, Otorohanga"
5742,Leamington,Christchurch,210,Hanover Place,"210 Heywards Road, Clarkville"
5743,Leith Valley,Masterton,26A,Bealey Avenue,"26A Newell Street, Point Chevalier, Auckland"
5771,Liberton,Hamilton,20,Caulfeild Street,"20 Calthorp Close, Favona, Auckland"
5772,Linton,Napier,13,Cross Street,"13 Lancewood Avenue, Titirangi, Auckland"
5773,Linton Camp,Porirua,21,Rapson Road,"21 Waitote Street, Castlecliff, Whanganui"
5781,Linwood,Paraparaumu,26,Leila Place,"26 Tower Road, Milton"
5782,Little Valley,Mapua,58,Ngaere Avenue,"58 Rata Street, Inglewood"
5783,Long Bay,Kaitaia,39,Dove Place,"39 David Street, Hawthorndale, Invercargill"
5784,Longburn,Tauranga,10,Archibald Road,"10 Lingham Crescent, Torbay, Auckland"
5791,Longlands,Auckland,62,Taonui Street,"62 No 4 Line, Ashhurst"
5792,Lookout Point,Rotorua,2,Mount Pleasant Road,"2 Alice Lane, Papamoa Beach, Papamoa"
5794,Lower Vogeltown,Auckland,25,Eaglesome Avenue,"25 Blue Penguin Drive, Kerikeri"
5810,Lowry Bay,Wellington,19,Racecourse Road,"19 Oranga Street, Marfell, New Plymouth"
5840,Lucas Heights,Christchurch,4,Junction Street,"4 Cedar Place, Hillcrest, Hamilton"
5842,Lyall Bay,Cambridge,E1/30,Read Street,"E1/30 Bute Road, Browns Bay, Auckland"
5871,Lynfield,Auckland,15,Turakina Valley Road,"15 Warhorse Gate, Halswell, Christchurch"
5872,Lynmouth,Wanaka,71,Stuart Street,"71 Rodney Avenue, Te Horo Beach"
5881,Lytton West,Tauranga,2D/126,Aporo Drive,"2D/126 The Terrace, Wellington Central, Wellington"
5882,Macandrew Bay,Whanganui,27B,Shelley Road,"27B Falconer Rise, Jacks Point"
5883,Maeroa,Opotiki,499A,Letts Gully Road,"499A Punakitere Road, Taheke"
5884,Mahora,Katikati,69,Lenton Street,"69 Grove Street, The Wood, Nelson"
5885,Maia,Takapau,1105,Mangakahia Road,"1105 State Highway 16, Waimauku"
5886,Maidstone,Napier,14,Banksia Road,"14 Rimu Street, Strandon, New Plymouth"
5887,Mairangi Bay,Taihape,116,Bethlehem Road,"116 Kawai Street, Nelson South, Nelson"
5888,Mairehau,Auckland,47,Frankleigh Street,"47 Brunner Road, Glen Eden, Auckland"
5889,Maitai,Auckland,42,Black Beech Street,"42 Waripori Street, Berhampore, Wellington"
5890,Makaraka,Auckland,3/226,Manu Place,"3/226 Taharepa Road, Tauhara, Taupo"
5894,Mana,New Plymouth,27,Deanwell Avenue,"27 Helleur Road, Massey, Auckland"
6011,Mangapapa,Auckland,9B,Esplanade Road,"9B Athens Road, Onehunga, Auckland"
6012,Mangaroa,Dunedin,23,Buckley Road,"23 Bracken Street, New Plymouth"
6021,Mangawhai Heads,Christchurch,10,Henderson Valley Road,"10 Stephen Street, Halfway Bush, Dunedin"
6022,Mangere,Picton,31,Anzac Parade,"31 Bradford Street, Bradford, Dunedin"
6023,Mangere Bridge,Papamoa,282A,Tilford Street,"282A Kainui Road, Taupiri"
6035,Mangere East,Lower Hutt,514,Rea Road,"514 Nottingley Road, Frimley, Hastings"
6037,Manly,Ashhurst,102,Paierau Road,"102 Captain Springs Road, Onehunga, Auckland"
6140,Manor Park,Christchurch,10,Logie Place,"10 Nottingham Drive, Hamilton East, Hamilton"
6141,Manukau,Clyde,59,Brampton Drive,"59 Hall Crescent, Epuni, Lower Hutt"
6142,Manunui,Blenheim,112,Hairini Street,"112 Hapuku Street, Frimley, Hastings"
6143,Manurewa,Auckland,6,Kupe Street,"6 Puriri Street, Mount Maunganui"
6144,Manurewa East,Darfield,103,Te Irirangi Drive,"103 Miro Street, Trentham, Upper Hutt"
6145,Maori Hill,Te Karaka,665,French Street,"665 Hazelmere Crescent, Te Awamutu"
6146,Maoribank,Waihi Beach,99,Hillary Road,"99 Moewai Road, Whitianga"
6147,Maraenui,Papakura,31,Grandview Road,"31 Shaw Street, Mosgiel"
6148,Maraetai,Cambridge,24,Patanga Crescent,"24 Rollett Road, Tokoroa"
6149,Marchwiel,Auckland,505,Manukau Road,"505 Hart Drive, Frimley, Hastings"
6150,Marewa,Twizel,8,Domain Crescent,"8 Cambridge Terrace, Kaiti, Gisborne"
6160,Marfell,Dunedin,22A,Finlayson Avenue,"22A Homestead Place, Glenview, Hamilton"
6241,Marsden,Pahiatua,81,Moore Street,"81 Rue Lavaud, Akaroa"
6242,Marybank,Palmerston North,19,West Fairway,"19 Frank Bunce Grove, Flat Bush, Auckland"
6243,Maryhill,Auckland,91,Rapurapu Road,"91 Tironui Drive, Taradale, Napier"
6244,Massey,Thames,277,Dalton Street,"277 Ford Road, Whakapirau"
6440,Matakatia,Invercargill,62,Sydney Street,"62 Essex Street, Phillipstown, Christchurch"
6441,Maungaraki,Auckland,35,Seddon Street,"35 Bradley Road, Osborne"
6442,Maunu,Auckland,6,Reid Road,"6 Unity Road, Waitakere, Auckland"
6443,Maupuia,Upper Hutt,4,Carruth Road,"4 Marua Palm Grove, Timberlea, Upper Hutt"
6972,Mayfair,Palmerston North,57,Pohutukawa Parade,"57 Hassall Street, Parkside, Timaru"
7005,Mayfield,Hamilton,13,Wanaka Street,"13 Wellington Street, Feilding"
7007,Meadowbank,Waipukurau,50,Ben Lomond Crescent,"50 The Loop, Meeanee, Napier"
7010,Mechanics Bay,Rotorua,38,Wharekopae Road,"38 Rahera Street, Spreydon, Christchurch"
7011,Meeanee,Christchurch,Jan 28,Hulverstone Drive,"1/28 Lambie Drive, Papatoetoe, Auckland"
7020,Melling,Turangi,Feb 44,Highcliff Road,"2/44 Beach Road, Katikati"
7022,Mellons Bay,Turangi,43,Phoenicia Court,"43 Highfields Drive, Katikati"
7025,Melrose,Nelson,941,Tinirau Street,"941 River Road, Queenwood, Hamilton"
7040,Melville,Kawerau,37,Trigg Crescent,"37 Carousel Crescent, East Tamaki Heights, Auckland"
7041,Merivale,Lower Hutt,33,Mabel Street,"33 Twyford Street, Bishopdale, Christchurch"
7042,Merrilands,Whangarei,35,Avenue Road,"35 Miller Street, Glenholme, Rotorua"
7043,Middleton,Oamaru,19,Beach Street,"19 Leaity Street, Moerewa"
7044,Milford,Pahiatua,16,Brennan Place,"16 Tullamore, Maunu, Whangarei"
7045,Milson,Havelock North,29A,Glendhu Road,"29A Kiriwai Road, Paremata, Porirua"
7046,Miramar,Auckland,53,Arcadia Road,"53 Anglesea Street, Hamilton Central, Hamilton"
7047,Mission Bay,Waiheke Island,6,High Street,"6 Bream Bay Drive, Ruakaka"
7048,Moana,Upper Hutt,22,Lower Beach Road,"22 Tukanae Street, Strathmore Park, Wellington"
7049,Moera,Auckland,63,James Laurie Street,"63 Hillcrest Avenue, Hillcrest, Auckland"
7050,Monaco,Auckland,223,Taraire Crescent,"223 Butchers Road, Clarkville"
7051,Moncks Bay,Auckland,91A,Mangawara Road,"91A Arcon Drive, Broomfield, Christchurch"
7052,Morningside,Napier,23,Tudor Street,"23 Gordon Avenue, St Albans, Christchurch"
7053,Mornington,Matamata,22A,Pipitea Place,"22A Valley Road, Mount Eden, Auckland"
7054,Motu Rimu,Dunedin,224,Te Takinga Street,"224 Massey Road, Mangere East, Auckland"
7055,Moturoa,Hamilton,112,Willow Park Drive,"112 Archibald Road, Kelston, Auckland"
7071,Mount Albert,Hastings,22,Little Compton Mews,"22 Hickford Road, Moutoa"
7072,Mount Cook,Kerikeri,104,York Street,"104 Dickens Street, Napier South, Napier"
7073,Mount Eden,Invercargill,219,Paine Street,"219 Reynolds Drive, Te Awamutu"
7077,Mount Pleasant,Christchurch,49/1,Lavenham Road,"49/1 Piriti Drive, Te Atatu Peninsula, Auckland"
7081,Mount Roskill,Hamilton,805,Awakino Road,"805 Clive Street, Akina, Hastings"
7091,Mount Victoria,Whanganui,19,McMurdo Street,"19 Blanche Way, Half Moon Bay, Auckland"
7095,Mount Wellington,Christchurch,22,Portobello Way,"22 Butler Place, Lynmore, Rotorua"
7096,Murrays Bay,Lower Hutt,21,Bristol Street,"21 Sea View Road, Ostend, Waiheke Island"
7100,Musselburgh,Dunedin,39,Beachville Crescent,"39 Fourth Avenue, Urenui"
7110,Naenae,Palmerston North,37,George Street,"37 Fern Drive, Halswell, Christchurch"
7120,Napier South,Dunedin,Mar 35,Matarangi Drive,"3/35 Ararino Street, Trentham, Upper Hutt"
7142,Narrow Neck,Auckland,23A,Fairmile Drive,"23A Princess Road, Bellevue, Tauranga"
7143,Nawton,Auckland,14A,Reef Street,"14A Nathan Street, Tawa, Wellington"
7144,Nelson Airport,Auckland,402/160,Ruahine Place,"402/160 Lichfield Street, Christchurch Central, Christchurch"
7145,Nelson South,Rotorua,17,Penrose Street,"17 Marshall Avenue, Whanganui East, Whanganui"
7146,Netherby,Gisborne,Feb 18,Hukanui Road,"2/18 Knights Road, Rothesay Bay, Auckland"
7150,New Brighton,Auckland,18,Matahi Valley Road,"18 Goldleaf Hill, Queenstown"
7173,New Lynn,Mangawhai,12,Summermist Drive,"12 Babington Street, Parkside, Timaru"
7175,New Windsor,Auckland,119,Karewa Street,"119 Cass Street, Kaiapoi"
7178,Newfield,Wellington,4,Otiria Road,"4 Mary Ann Muller Crescent, Stoke, Nelson"
7182,Newlands,Cromwell,704/72,Manukau Road,"704/72 Nelson Street, Auckland Central, Auckland"
7183,Newmarket,Auckland,45,Dickson Crescent,"45 Matterhorn Crescent, Northpark, Auckland"
7192,Newtown,Auckland,9,Hewletts Road,"9 Bradshaw Terrace, Riccarton, Christchurch"
7193,Ngaio,Lower Hutt,299B,Cameron Street,"299B Kennedy Road, Onekawa, Napier"
7194,Ngauranga,Auckland,69C,Grace Crescent,"69C Williams Street, Cambridge"
7195,Nikau Valley,Auckland,67,Kyber Street,"67 Masefield Avenue, Maraenui, Napier"
7196,Normanby,Hamilton,51,Ngata Place,"51 Motutapu Avenue, Manly, Whangaparaoa"
7197,Normandale,Hamilton,10,Urquhart Road,"10 Beatrice Street, Rarangi"
7198,North Dunedin,Waihi,Apr 62,Nelson Street,"4/62 Milford Road, Milford, Auckland"
7201,North East Valley,Christchurch,37,Riverpark Drive,"37 Cheviot Street, Mangawhai Heads, Mangawhai"
7202,North New Brighton,Auckland,74,Warren Avenue,"74 Te Awa Avenue, Te Awa, Napier"
7204,Northcote,Rotorua,Jan 38,Penfold Place,"1/38 Wordsworth Crescent, Maraenui, Napier"
7206,Northcote Point,Blenheim,187,Bell Street,"187 Innes Road, St Albans, Christchurch"
7210,Northcross,Timaru,14,Attwood Road,"14 Seddon Crescent, Whataupoko, Gisborne"
7220,Northgate,Auckland,9,Federal Street,"9 Cotter Avenue, Arrowtown"
7240,Northland,Christchurch,46,Bell Road,"46 Aberdeen Road, Campbells Bay, Auckland"
7241,Northpark,Whanganui,Feb 39,Rushbrook Road,"2/39 Kilmarnock Street, Riccarton, Christchurch"
7242,Northwood,Whanganui,22,Caroline Street,"22 Broad Oaks Road, Morrinsville"
7243,Nukuhau,Porirua,7,Jacksons Road,"7 Clarice Place, Takanini"
7244,Oamaru North,Kaiapoi,10,Kahurangi Lane,"10 Acacia Avenue, Maryhill, Dunedin"
7246,Ocean Beach,Waihi Beach,1404,Paparata Road,"1404 Jellicoe Street, Mayfair, Hastings"
7247,Ocean Grove,Papamoa,45,Lovelock Place,"45 Waenga Drive, Cromwell"
7248,Ocean View,Stratford,1,Cathray Place,"1 Taiping Terrace, Linton Camp, Palmerston North"
7250,Oceanview,Christchurch,115C,Ward Street,"115C Highsted Road, Casebrook, Christchurch"
7251,Ohakea,Taumarunui,02 Jul,Redoubt Road,"2/7 Massey Avenue, Woburn, Lower Hutt"
7260,Ohariu,Hamilton,627,Phillips Avenue,"627 Mangorei Road, Mangorei"
7271,Okitu,Auckland,23,Geneva Terrace,"23 Brora Crescent, Papakowhai, Porirua"
7272,Omiha,Christchurch,304,Chelsea Street,"304 Terrace Road, Parkvale, Hastings"
7273,One Tree Hill,Rolleston,12,Motukawa Road,"12 Bankwood Road, Chartwell, Hamilton"
7274,Onehunga,Tairua,10,Hackthorne Road,"10 Berwick Place, Mount Maunganui"
7275,Onekawa,Auckland,9,Watsons Road,"9 Miro Road, Palm Beach, Waiheke Island"
7276,Onerahi,Hastings,54,Nellie Drive,"54 Fantham Street, Hawera"
7281,Oneroa,Whakatane,01 Apr,Railway Terrace,"1/4 Brick Street, Henderson, Auckland"
7282,Onetangi,Dunedin,8A,Ambury Road,"8A Arthur Street, Glenholme, Rotorua"
7284,Opaheke,Blenheim,62,Fitzroy Avenue,"62 Birchwood Lane, Tamahere"
7285,Opawa,Auckland,28,Kuawa Drive,"28 Catalina Drive, Melville, Hamilton"
7300,Opoho,Auckland,266,Park Avenue,"266 Titirangi Road, Titirangi, Auckland"
7310,Orakei,Auckland,8,Coty Place,"8 Factory Lane, Ngatea"
7332,Oratia,Tauranga,11,Farmer Crescent,"11 Stratford Way, Wilton, Wellington"
7334,Oriental Bay,Nelson,20,Whareora Road,"20 Ashmore Place, Favona, Auckland"
7340,Ostend,Napier,54,Norwegian Road,"54 Acacia Road, Torbay, Auckland"
7341,Otahuhu,Palmerston North,19,Richmond Road,"19 Pitt Street, Wadestown, Wellington"
7343,Otaihanga,Christchurch,112,Hutt Road,"112 Haisman Road, Makauri, Gisborne"
7345,Otaki Beach,Auckland,99,West Coast Road,"99 Hunua Road, Hunua"
7348,Otamatea,Whangaparaoa,95,Francevic Avenue,"95 Memorial Avenue, Ilam, Christchurch"
7360,Otangarei,Wellington,5/355,Karyn Street,"5/355 Worcester Street, Linwood, Christchurch"
7371,Otara,Christchurch,46,Cross Street,"46 Landmark Terrace, Orewa"
7373,Oteha,Hamilton,12,Horomatangi Street,"12 Te Anau Avenue, Hataitai, Wellington"
7374,Outer Kaiti,Wellington,50,Te Hutewai Road,"50 Fenton Mill Road, Kawerau"
7379,Owhiro Bay,Napier,16,Farnham Way,"16 Mistral Place, West Harbour, Auckland"
7381,Pahurehure,Auckland,8,Kings Road,"8 Highland Brae, Prebbleton"
7382,Pakuranga,Oamaru,20A,Waimea Street,"20A Grace Nicholls Grove, Riverstone Terraces, Upper Hutt"
7383,Pakuranga Heights,Hawera,54,Queen Street,"54 Aerodrome Road, Mount Maunganui"
7384,Pakuratahi,Auckland,56,Beresford Street,"56 Ward Street, Dunedin Central, Dunedin"
7385,Palm Beach,Whangarei,10A,The Ridgeway,"10A Dallinger Street, Saint Andrews, Hamilton"
7387,Pandora,Tauranga,16,Hinemoa Street,"16 Kinley Street, Rangiora"
7391,Panmure,Papamoa,45,South Road,"45 Lorne Crescent, Flaxmere, Hastings"
7392,Papakowhai,Porirua,32,Karamu Crescent,"32 Bermuda Drive, Hornby, Christchurch"
7395,Papanui,Rotorua,14,Kawera Road,"14 Salisbury Road, Bradford, Dunedin"
7400,Paparangi,Brightwater,32,Craigie Avenue,"32 Oranga Street, Marfell, New Plymouth"
7402,Papatoetoe,Christchurch,10,Ohau Terraces,"10 Taniwha Street, Frankton, Hamilton"
7410,Parahaki,Wellington,15,Scandrett Street,"15 Pastoral Lane, Hokowhitu, Palmerston North"
7420,Paraparaumu Beach,Whanganui,12A,Cataldo Mews,"12A Glacial Terrace, St Arnaud"
7430,Parau,Auckland,1187D,Main Road,"1187D New North Road, Mount Albert, Auckland"
7440,Paremata,Auckland,26,Cresswell Avenue,"26 Warspite Avenue, Cannons Creek, Porirua"
7441,Paremoremo,Arrowtown,22B,Trewavas Street,"22B Waimea Street, Westown, New Plymouth"
7442,Parklands,Tauranga,5,Martin Road,"5 Bosworth Street, Egmont Village"
7443,Parkside,Auckland,Jan 16,Sunshine Avenue,"1/16 Ewington Avenue, Mount Eden, Auckland"
7444,Parkvale,Christchurch,3,Halcyon Place,"3 Notch Place, Alfriston, Auckland"
7445,Parnell,Pukekohe,56,Waiti Road,"56 Puhara Avenue, Parklands, Christchurch"
7446,Paroa,Christchurch,6,Waihuka Road,"6 Marshs Road, Templeton, Christchurch"
7447,Penrose,Brightwater,29,Carmen Road,"29 Clipper Street, Titahi Bay, Porirua"
7448,Petone,Wellington,2,Mana Esplanade,"2 Crichton Lane, Fernhill, Queenstown"
7471,Phillipstown,Auckland,56,Livingstone Street,"56 Chesterfield Way, Orewa"
7472,Pine Hill,Nelson,670,Brunswick Street,"670 Skinner Road, Ngaere"
7473,Pinehaven,Alexandra,3,Paremata Road,"3 Blackman Avenue, Sawyers Bay, Dunedin"
7474,Pinehill,Te Kauwhata,8,George Street,"8 Savage Crescent, Waipukurau"
7481,Pipitea,Wellington,156B,Cashmere Drive,"156B Penrose Road, Mount Wellington, Auckland"
7482,Pirimai,Napier,2/102A,Totara Crescent,"2/102A Queenspark Drive, Parklands, Christchurch"
7483,Plimmerton,Auckland,42,Forest Hill Crossing Road,"42 Hastings Road, Mairangi Bay, Auckland"
7491,Point Chevalier,Auckland,16,Woodside Road,"16 Septimus Place, Henderson, Auckland"
7495,Point England,Hamilton,10,Fencourt Crescent,"10 Law Road, Whitikahu"
7500,Point Howard,Palmerston North,705A,Elliott Street,"705A Taniwha Road, Waerenga"
7510,Ponsonby,Mount Maunganui,7,Yates Road,"7 Elmwood Drive, Prebbleton"
7520,Poraiti,Omokoroa,Apr 17,Wellington Road,"4/17 Bunyan Street, Waltham, Christchurch"
7540,Porirua East,Stratford,5,Tennyson Street,"5 Merioneth Street, Arrowtown"
7541,Port Nelson,Auckland,27,Elgin Road,"27 Normanby Street, Newtown, Wellington"
7542,Port Taranaki,Palmerston North,4,Canada Street,"4 Toheroa Street, Hobsonville, Auckland"
7543,Port Whangarei,Porirua,21A,Main Road,"21A Donald Street, Karori, Wellington"
7544,Portobello,Christchurch,212,Mountain View Road,"212 Parekawa Drive, Motuoapa"
7545,Prestonville,Hokitika,223,Teal Valley Road,"223 Ruatoki Valley Road, Ruatoki"
7546,Pukete,Auckland,6,Valley Road,"6 Bright Crescent, Maraenui, Napier"
7548,Putiki,Rotorua,59A,Mangorei Road,"59A Alpers Ridge, Leamington, Cambridge"
7571,Queens Park,Mount Maunganui,35,Antrim Crescent,"35 Severn Street, Oamaru"
7572,Queenwood,Feilding,2,Puketona Road,"2 Cumberland Place, Tapanui"
7580,Rahu Saddle,Lower Hutt,32,Swansea Street,"32 Sylvania Drive, Matua, Tauranga"
7581,Rainbow Point,Auckland,11,Harbourview Street,"11 Parkdale Drive, Aramoho, Whanganui"
7582,Randwick Park,Auckland,28,Oruakainga Road,"28 Pendlebury Street, Green Bay, Auckland"
7583,Rangatira Park,Christchurch,04 Aug,Kingdale Road,"4-8 Thornlea Grove, Waiuku"
7591,Ranui,Carterton,23,Fairview Road,"23 Scotia Glen Street, Putaruru"
7600,Ranui Heights,Feilding,16,Sycamore Drive,"16 Rewa Street, Musselburgh, Dunedin"
7602,Rapahoe,Auckland,364B,Evesham Avenue,"364B Ngaio Road, Halcombe"
7604,Raumanga,Auckland,27,Crichton Terrace,"27 St Lukes Road, Mount Albert, Auckland"
7608,Raumati Beach,Palmerston North,31,Aurea Avenue,"31 Turner Drive, Western Heights, Rotorua"
7610,Raumati South,Lower Hutt,33,Moa Street,"33 Tokomaru Street, Welbourn, New Plymouth"
7614,Raureka,Akaroa,81,Luxmoore Road,"81 Chain Hills Road, Chain Hills, Dunedin"
7616,Ravensbourne,Orewa,2380,Reid Street,"2380 State Highway 7, Ngahere"
7630,Red Hill,Palmerston North,27A,Green Street,"27A Cavalli View Road, Kaeo"
7632,Redcliffs,Hamilton,34,Strickland Street,"34 Island Bay Road, Beach Haven, Auckland"
7640,Redwood,Hawera,68,Barnfield Place,"68 Tricketts Road, West Melton"
7641,Redwoodtown,Orewa,3,Esperance Street,"3 Innes Street, Waimate"
7642,Regent,Ashburton,Feb 24,Tristram Avenue,"2/24 Halleys Place, Mount Roskill, Auckland"
7643,Remuera,Manaia,13B,Ferguson Street,"13B Ouse Street, Rongotea"
7644,Riccarton,Christchurch,576,Upper Junction Road,"576 State Highway 26, Newstead"
7645,Richmond,Auckland,25,Steamer Road,"25 Tongariro Street, Castlecliff, Whanganui"
7646,Richmond Heights,Auckland,Jan 77,Balmoral Drive,"1/77 Lucerne Road, Remuera, Auckland"
7647,Richmond Hill,Auckland,20,Garden Terrace,"20 Lee Avenue, Paeroa"
7649,Riverdale,Morrinsville,45,Swanson Road,"45 Kings Avenue, Waikuku Beach"
7656,Riverlea,Auckland,25,Sunhaven Avenue,"25 Strathmore Street, Matua, Tauranga"
7657,Riversdale,Auckland,25,Marshall Laing Avenue,"25 Nikau Place, Highfield, Timaru"
7670,Riverside,Methven,11,Arthur Street,"11 Kidson Terrace, Cashmere, Christchurch"
7671,Riverstone Terraces,Turangi,15,Mickelson Avenue,"15 Crescent Court, Melville, Hamilton"
7672,Rockdale,Lincoln,12,Fenwick Crescent,"12 Richard Street, Westmere, Auckland"
7673,Rongotai,Auckland,2/514,Hokianga Road,"2/514 Mount Albert Road, Mount Roskill, Auckland"
7674,Rosedale,Christchurch,45,South Road,"45 Charlcott Street, Burnside, Christchurch"
7675,Rosehill,Tauranga,174,Carlton Avenue,"174 Mountain View Road, Gleniti, Timaru"
7676,Roseneath,Hamilton,Jan 26,Upwood Place,"1/26 Greendale Spur, Glenfield, Auckland"
7681,Roslyn,Richmond,20,Enid Avenue,"20 Winchester Street, Merivale, Christchurch"
7682,Rothesay Bay,Hamilton,67,Verbena Road,"67 Bankwood Road, Chartwell, Hamilton"
7683,Rototuna,Auckland,3,Castor Bay Road,"3 Brandon Street, Featherston"
7691,Rototuna North,Whangarei,7,Vauxhall Road,"7 D'Urville Way, Welcome Bay, Tauranga"
7692,Royal Oak,Mount Maunganui,8,Goodall Street,"8 Kaye Road, Pataua North"
7700,Ruby Bay,Hamilton,11,Smedley Street,"11 Cresta Place, Onerahi, Whangarei"
7710,Russley,Christchurch,21,Kinmont Crescent,"21 Totara Street, Ohakune"
7730,Rutherglen,Winchester,5,De Havilland Street,"5 Elm Row, Dunedin Central, Dunedin"
7740,Saint Albans,Warkworth,61C,Redoubt Road,"61C Hoon Hay Road, Hoon Hay, Christchurch"
7741,Saint Andrews,Waihi,15,Twentysecond Avenue,"15 Ethel Street, Sandringham, Auckland"
7742,Saint Clair,Waiheke Island,16,Albert Street,"16 McFadzean Drive, Blockhouse Bay, Auckland"
7743,Saint Johns,Taihape,83,Egmont Street,"83 Waiewe Street, Whakatane"
7745,Saint Johns Hill,Whitianga,34,Saunders Road,"34 Garrett Road, Waitao"
7746,Saint Kilda,Taneatua,13,Rawhitiroa Road,"13 Dorset Street, Picton"
7747,Saint Leonards,Christchurch,29,Norton Street,"29 Glenorchy Street, Glen Eden, Auckland"
7748,Saint Martins,Palmerston North,11A,Grimseys Road,"11A Lawrence Street, Te Kuiti"
7771,Saint Marys Bay,Ohope,29,Inveresk Place,"29 Goodwin Drive, Rosehill, Papakura"
7772,Sandringham,Richmond,99,Rangiora Place,"99 Calcutta Street, Khandallah, Wellington"
7773,Sawyers Bay,Hamilton,1116,May Road,"1116 Glen Murray Road, Churchill"
7774,Schnapper Rock,Te Awamutu,148,Burden Avenue,"148 Newcastle Street, Windsor, Invercargill"
7775,Seatoun,Kumeu,36,Passmore Crescent,"36 Panekaira Road, Mangapai, Whangarei"
7776,Seaview,Runanga,44,Solander Street,"44 Frye Crescent, Albert Town"
7777,Seaward Bush,Hastings,22,Oropi Road,"22 Emmett Street, Newtown, Wellington"
7778,Shamrock Park,Hamilton,11,Onetaunga Road,"11 Kereru Street, Waikiwi, Invercargill"
7781,Shelly Park,Levin,22,Nash Road,"22 Aotea Road, Glen Eden, Auckland"
7782,Shiel Hill,Greytown,18,McLeod Road,"18 School Road, Lower Moutere"
7783,Shirley,Christchurch,37,Knights Road,"37 Grierson Avenue, Amberley"
7784,Silverdale,Helensville,7,Ebanjane Way,"7 Ellice Street, Mount Victoria, Wellington"
7791,Silverstream,Rotorua,7,Portland Place,"7 Scotney Mews, Bethlehem, Tauranga"
7802,Smithfield,Upper Hutt,Sep 33,Windley Place,"9/33 Vienna Street, Waltham, Christchurch"
7803,Sockburn,Auckland,6,Hilton Road,"6 Ata-Mahina Way, Ruakaka"
7804,Solway,Whangarei,22,Rewarau Road,"22 Clearwater Street, Broad Bay, Dunedin"
7805,Somerfield,Auckland,240,Byblos Place,"240 Peak Road, Kaukapakapa"
7810,Somerville,Opotiki,1,Bruce Road,"1 Inver Street, Glen Eden, Auckland"
7811,South Dunedin,Hamilton,4/120,Queens Wharf,"4/120 Huxley Street, Sydenham, Christchurch"
7812,South Hill,Christchurch,10,Totaravale Drive,"10 Cambridge Street, Hampstead, Ashburton"
7822,South New Brighton,Te Awamutu,37,Malcolm Terrace,"37 Burr Road, Otorohanga"
7823,Southgate,Whangarei,16,Outram-Mosgiel Road,"16 Boylan Road, Titirangi, Auckland"
7825,Southshore,Hamilton,1,Arklow Lane,"1 Milford Street, Gore"
7830,Spotswood,Christchurch,Jan 83,Te Mata Mangateretere Road,"1/83 McLeod Road, Te Atatu South, Auckland"
7832,Spreydon,Christchurch,37B,Phillips Avenue,"37B Herewini Street, Titahi Bay, Porirua"
7840,Springlands,Lower Hutt,1,Reeme Street,"1 York Place, Tokoroa"
7841,Springvale,Invercargill,61,Walworth Avenue,"61 Whitney Street, New Windsor, Auckland"
7842,St Heliers,Dunedin,64,Fox Street,"64 Sewell Street, Kaiapoi"
7843,Stanley Point,Lower Hutt,388,Noumea Place,"388 Strode Road, Fraser Dam"
7844,Stanmore Bay,Kumeu,917,Karaka Street,"917 Island Block Road, Island Block"
7845,Stepneyville,Auckland,60,Taylor Street,"60 County Road, Kaikorai, Dunedin"
7846,Stillwater,Hamilton,31-39,Elbourne Street,"31-39 Hillside Road, Wairau Valley, Auckland"
7847,Stoke,Mosgiel,35,Miro Street,"35 Cardiff Crescent, Cannons Creek, Porirua"
7848,Stokes Valley,Riverhead,10,Turakina Beach Road,"10 Rewa Rewa Road, Raumanga, Whangarei"
7851,Stonefields,Stratford,30,Kowhai Street,"30 Rewa Rewa Road, Raumanga, Whangarei"
